fsq_id,category_id,chains,distance,latitude,longitude,location_country,location_cross_street,location_formatted_address,location_locality,location_postcode,location_region,location_timezone,name,bike_station_id
4c05d5ec761ac9b6fc2a2074,13065,[],12,49.281113,-123.104179,CA,at Hastings St.,"428 Carrall St (at Hastings St.), Vancouver BC V6B 2J7",Vancouver,V6B 2J7,BC,America/Vancouver,Calabash Bistro,97b25faf822b93fdbf72da1d594c0288
4fae01d3e4b0861eac7a985a,13065,[],80,49.281911,-123.10449,CA,btwn Cordova & Hastings,"350 Carrall St (btwn Cordova & Hastings), Vancouver BC V6B 2J3",Vancouver,V6B 2J3,BC,America/Vancouver,Pidgin,97b25faf822b93fdbf72da1d594c0288
4dc9a94cd22d2af63302269c,13065,[],114,49.282251,-123.104519,CA,btwn Cordova & Hastings,"315 Carrall St (btwn Cordova & Hastings), Vancouver BC V6B 2J4",Vancouver,V6B 2J4,BC,America/Vancouver,Nelson the Seagull,97b25faf822b93fdbf72da1d594c0288
5165db75e4b09027efef5d80,13065,[],112,49.282194,-123.104514,CA,btwn Cordova & Hastings,"319 Carrall St (btwn Cordova & Hastings), Vancouver BC V6B 2J4",Vancouver,V6B 2J4,BC,America/Vancouver,East Van Roasters,97b25faf822b93fdbf72da1d594c0288
52f53570498ee24640cf0d17,13065,[],190,49.282729,-123.104884,CA,btwn Abbott & Carrall,"15 Cordova St W (btwn Abbott & Carrall), Vancouver BC V6B 1C8",Vancouver,V6B 1C8,BC,America/Vancouver,Tacofino,97b25faf822b93fdbf72da1d594c0288
5106fafce4b08b6e9833b1fd,13065,[],123,49.281922,-123.10587,CA,btwn Abbott & Carrall,"33 Hastings St W (btwn Abbott & Carrall), Vancouver BC V6B 1G4",Vancouver,V6B 1G4,BC,America/Vancouver,Lost and Found Cafe,97b25faf822b93fdbf72da1d594c0288
5571fb92498ea7cb0188781b,13065,[],138,49.280609,-123.106164,CA,,"88 Pender St W, Vancouver BC V6B 6N9",Vancouver,V6B 6N9,BC,America/Vancouver,Congee Noodle Delight,97b25faf822b93fdbf72da1d594c0288
5a9f4edd67f62b30720a457e,13065,[],154,49.281968,-123.10628,CA,,"51 Hastings St W, Vancouver BC V6B 1G4",Vancouver,V6B 1G4,BC,America/Vancouver,Moltaqa Moroccan Restaurant,97b25faf822b93fdbf72da1d594c0288
4aab5a60f964a5207f5920e3,13065,[],175,49.282806,-123.104079,CA,"btw Water, Powell & Alexander St","216 Carrall St (btw Water, Powell & Alexander St), Vancouver BC V6B 2J1",Vancouver,V6B 2J1,BC,America/Vancouver,Blarney Stone,97b25faf822b93fdbf72da1d594c0288
545ec0f8498e273850629fdf,13065,[],180,49.280187,-123.106696,CA,Abbott st,"88 Pender St W (Abbott st), Vancouver BC V6B 6N9",Vancouver,V6B 6N9,BC,America/Vancouver,Bali Thai,97b25faf822b93fdbf72da1d594c0288
5702dba6498e762cb70377df,13065,[],196,49.280815,-123.106993,CA,Abbott St,"88 Pender St W (Abbott St), Vancouver BC V6B 6N9",Vancouver,V6B 6N9,BC,America/Vancouver,Caveman Cafe,97b25faf822b93fdbf72da1d594c0288
56739847498e9e978e17729e,13065,[],168,49.280264,-123.106784,CA,,"88 Pender St W, Vancouver BC V6B 6N9",Vancouver,V6B 6N9,BC,America/Vancouver,Thai Town Restaurant,97b25faf822b93fdbf72da1d594c0288
5f553af38e395e7714c55707,13065,[],81,49.280336,-123.10395,CA,,"18 Pender St E, Vancouver BC V6A 1T1",Vancouver,V6A 1T1,BC,America/Vancouver,Kouign Cafe,97b25faf822b93fdbf72da1d594c0288
622bef11e6b28e7bb73ac177,13065,[],111,49.282179,-123.104675,CA,Cordova,"310 Carrall St (Cordova), Vancouver BC V6B 2J4",Vancouver,V6B 2J4,BC,America/Vancouver,Captain Donari Ltd,97b25faf822b93fdbf72da1d594c0288
4b7b12def964a520df4f2fe3,13065,[],140,49.28048,-123.106315,CA,in International Village,"88 Pender St W (in International Village), Vancouver BC V6B 6N9",Vancouver,V6B 6N9,BC,America/Vancouver,TacoTime,97b25faf822b93fdbf72da1d594c0288
5a794d169e3b65540126ae5c,13065,[],160,49.282081,-123.106289,CA,,"47 Hastings St W, Vancouver BC V6B 1G4",Vancouver,V6B 1G4,BC,America/Vancouver,Balila,97b25faf822b93fdbf72da1d594c0288
57a54a0e498ec7468784c231,13065,[],167,49.282631,-123.103821,CA,Cordova st,"280 Carrall St (Cordova st), Vancouver BC V6B 2J1",Vancouver,V6B 2J1,BC,America/Vancouver,Kozakura Restaurant,97b25faf822b93fdbf72da1d594c0288
4edc15ac02d5244e3280980b,13065,[],176,49.280541,-123.102102,CA,Carrall St.,"101 Pender St E (Carrall St.), Vancouver BC V6A 1T6",Vancouver,V6A 1T6,BC,America/Vancouver,The Chinese Tea Shop,97b25faf822b93fdbf72da1d594c0288
5dec0a65b047df0008753645,13065,[],177,49.280349,-123.106696,CA,in Tinseltown Mall,"88W Pender St W (in Tinseltown Mall), Vancouver BC V6B 6N9",Vancouver,V6B 6N9,BC,America/Vancouver,Torimaru Entertainment Ltd,97b25faf822b93fdbf72da1d594c0288
5b455d4583e380002c6cabf9,13065,[],193,49.280244,-123.106701,CA,Abbott,"88 W Pender St (Abbott), Vancouver BC",Vancouver,,BC,America/Vancouver,Chào Street Food,97b25faf822b93fdbf72da1d594c0288
6043ed68af1993735b40e0c6,13065,[],196,49.280536,-123.101858,CA,Columbia St.,"105 Pender St E (Columbia St.), Vancouver BC V6A 1T6",Vancouver,V6A 1T6,BC,America/Vancouver,Between 2 Buns,97b25faf822b93fdbf72da1d594c0288
5b047e6546e1b6002c3285a5,13065,[],196,49.280357,-123.10671,CA,,"88 Pender St W, Vancouver BC V6B 6N9",Vancouver,V6B 6N9,BC,America/Vancouver,Blazing Sushi,97b25faf822b93fdbf72da1d594c0288
a51e63ffaeed4a52f1e073f1,13065,[],14,49.281103,-123.104583,CA,,"425 Carrall St, Vancouver BC V6B 6E3",Vancouver,V6B 6E3,BC,,Earl's Restaurants,97b25faf822b93fdbf72da1d594c0288
b00c93f75db74c2372334b43,13065,[],20,49.281283,-123.104193,CA,,"408 Carrall St, Vancouver BC",Vancouver,,BC,,Cartems Donuterie,97b25faf822b93fdbf72da1d594c0288
61794c46f00b4e7b5c22ca0e,13065,[],120,49.282251,-123.104519,CA,,"315 Carrall St, Vancouver BC V6B 2J4",Vancouver,V6B 2J4,BC,,Brick Yard,97b25faf822b93fdbf72da1d594c0288
1d62d29659284cc2a2307a04,13065,[],138,49.282405,-123.104694,CA,,"2 Cordova St W, Vancouver BC V6B 1C9",Vancouver,V6B 1C9,BC,,Prime Time Chicken,97b25faf822b93fdbf72da1d594c0288
84129787f2884df0e43e9ac7,13065,[],150,49.281565,-123.102432,CA,,"375 Columbia St, Vancouver BC",Vancouver,,BC,,Adriatic Divine Sandwiches,97b25faf822b93fdbf72da1d594c0288
6bc25a0df6b545f4ff184d5e,13065,[],157,49.282421,-123.105426,CA,,"36 Cordova St W, Vancouver BC V6B 1C9",Vancouver,V6B 1C9,BC,,Jack's Place,97b25faf822b93fdbf72da1d594c0288
662ab9014d554d9036511725,13065,[],184,49.280259,-123.10654,CA,,"88 Pender St W, Vancouver BC V6B 6N9",Vancouver,V6B 6N9,BC,,Glorious Sun Restaurant,97b25faf822b93fdbf72da1d594c0288
dcd4abf4fd514f9d99063aa8,13065,[],187,49.280335,-123.102165,CA,,"101 Pender St E, Vancouver BC V6A 1T6",Vancouver,V6A 1T6,BC,,Pleasure Republic,97b25faf822b93fdbf72da1d594c0288
4b9ebca4b6b74a7d2b18d1af,13065,[],194,49.282899,-123.104006,CA,,"210 Carrall St, Vancouver BC V6B 2J1",Vancouver,V6B 2J1,BC,,Shebeen,97b25faf822b93fdbf72da1d594c0288
5843e327be6f4b0d141a2319,13065,[],194,49.280244,-123.106701,CA,,"88 Pender St W, Vancouver BC V6B 6N9",Vancouver,V6B 6N9,BC,,Giant Panda Szechuan Cuisine,97b25faf822b93fdbf72da1d594c0288
50d4bd11e4b0b55bb4b657a3,13065,[],49,49.266477,-123.140728,CA,at W 6th Ave,"2150 Fir St (at W 6th Ave), Vancouver BC V6J 3B5",Vancouver,V6J 3B5,BC,America/Vancouver,Beaucoup Bakery & Cafe,57e928d8c30fab0ebffb3ede850f89d6
51f0a5ab498e51fcfd61c69a,13065,[],129,49.266297,-123.139334,CA,btwn Fir & Granville,"1535 6th Ave W (btwn Fir & Granville), Vancouver BC V6J 1R1",Vancouver,V6J 1R1,BC,America/Vancouver,Farmer's Apprentice Restaurant,57e928d8c30fab0ebffb3ede850f89d6
4ad69b00f964a520f80721e3,13065,[],182,49.266415,-123.138696,CA,at W 6th Ave,"2141 Granville St (at W 6th Ave), Vancouver BC V6H 3E9",Vancouver,V6H 3E9,BC,America/Vancouver,Cheesecake Etc,57e928d8c30fab0ebffb3ede850f89d6
4aeb3af1f964a520e1bf21e3,13065,[],177,49.265478,-123.139832,CA,btwn Fir & Granville,"1551 7th Ave W (btwn Fir & Granville), Vancouver BC V6J 1S1",Vancouver,V6J 1S1,BC,America/Vancouver,Salade de Fruits Inc,57e928d8c30fab0ebffb3ede850f89d6
5546c9e5498e448ae20d6ccb,13065,[],121,49.266302,-123.139578,CA,between Fir & Granville,"1537 6th Ave W (between Fir & Granville), Vancouver BC V6J 1R1",Vancouver,V6J 1R1,BC,America/Vancouver,Grapes & Soda,57e928d8c30fab0ebffb3ede850f89d6
6084a4cf0cccc51c8d96523a,13065,[],5,49.266755,-123.141401,CA,,"1605 5th Ave W, Vancouver BC V6J 1N5",Vancouver,V6J 1N5,BC,America/Vancouver,Las Autenticas,57e928d8c30fab0ebffb3ede850f89d6
5fbc00e8d90bc5545327794b,13065,[],60,49.267409,-123.141132,CA,,"1605 5th Ave W, Vancouver BC V6J 1N5",Vancouver,V6J 1N5,BC,America/Vancouver,Antojos y Sabores,57e928d8c30fab0ebffb3ede850f89d6
4d9cffc2a695721ebd2a080d,13065,[],61,49.267203,-123.141196,CA,,"1605 5th Ave W, Vancouver BC V6J 1N5",Vancouver,V6J 1N5,BC,America/Vancouver,Lazy Gourmet,57e928d8c30fab0ebffb3ede850f89d6
48a78980b8f5454373009510,13065,[],180,49.267826,-123.143033,CA,,"1688 4th Ave W, Vancouver BC V6J 1L9",Vancouver,V6J 1L9,BC,,Sonoma,57e928d8c30fab0ebffb3ede850f89d6
5453fb6d498e366a912293d5,13065,[],33,49.268082,-123.157004,CA,btwn Vine & Yew,"2278 4th Ave W (btwn Vine & Yew), Vancouver BC V6K 1N8",Vancouver,V6K 1N8,BC,America/Vancouver,Au Comptoir,3596b4831ee2ea7812de753b32306835
5780683c498e51523ab4851b,13065,[],72,49.268036,-123.158378,CA,,"2340 4th Ave W, Vancouver BC V6K 1P1",Vancouver,V6K 1P1,BC,America/Vancouver,Raisu,3596b4831ee2ea7812de753b32306835
4bb6483ff562ef3b59e92f97,13065,[],54,49.268087,-123.158139,CA,Vine St,"2324 4th Ave W (Vine St), Vancouver BC V6K 1P1",Vancouver,V6K 1P1,BC,America/Vancouver,Maria's Taverna,3596b4831ee2ea7812de753b32306835
4aaa6f4ff964a520ef5520e3,13065,[],134,49.268113,-123.159358,CA,at Balsam St,"2380 4th Ave W (at Balsam St), Vancouver BC V6K 1P1",Vancouver,V6K 1P1,BC,America/Vancouver,Terra Breads,3596b4831ee2ea7812de753b32306835
4aae8205f964a5204a6220e3,13065,[],188,49.268036,-123.15481,CA,at Yew St,"2198 4th Ave W (at Yew St), Vancouver BC V6K 1N6",Vancouver,V6K 1N6,BC,America/Vancouver,49th Parallel Coffee,3596b4831ee2ea7812de753b32306835
4ac4169cf964a5202b9e20e3,13065,[],40,49.268061,-123.156921,CA,at Vine St.,"2274 4th Ave W (at Vine St.), Vancouver BC V6K 1N8",Vancouver,V6K 1N8,BC,America/Vancouver,Hi Nippon Japanese Restaurant,3596b4831ee2ea7812de753b32306835
4b03579ef964a520c14e22e3,13065,[],117,49.268057,-123.155785,CA,at Yew St,"2222 4th Ave W (at Yew St), Vancouver BC V6K 1N8",Vancouver,V6K 1N8,BC,America/Vancouver,Simpatico Ristorante,3596b4831ee2ea7812de753b32306835
4aa7d9cdf964a5209a4d20e3,13065,[],15,49.268087,-123.157247,CA,at Vine St,"2296 4th Ave W (at Vine St), Vancouver BC V6K 1N8",Vancouver,V6K 1N8,BC,America/Vancouver,Browns Socialhouse Kitsilano,3596b4831ee2ea7812de753b32306835
51c8fd70498e48a12893ba67,13065,[],155,49.268082,-123.15968,CA,at Balsam St,"2394 4th Ave W (at Balsam St), Vancouver BC V6K 1P1",Vancouver,V6K 1P1,BC,America/Vancouver,Peaceful Restaurant,3596b4831ee2ea7812de753b32306835
5b6e27f7c66666002c32ea31,13065,[],62,49.267881,-123.157311,CA,West 4th,"2028 Vine St (West 4th), Vancouver BC V6K 3K1",Vancouver,V6K 3K1,BC,America/Vancouver,Kokomo,3596b4831ee2ea7812de753b32306835
61340bc71ef7f12ee8f1f1a2,13065,[],62,49.268077,-123.15676,CA,,"2272W 4Th Ave W 4Th, Vancouver BC V6K 1N8",Vancouver,V6K 1N8,BC,America/Vancouver,Delara,3596b4831ee2ea7812de753b32306835
615921cd964256670def27af,13065,[],133,49.267959,-123.155615,CA,,"2214 4th Ave W, Vancouver BC V6K 1N8",Vancouver,V6K 1N8,BC,America/Vancouver,Jackson's Resto Butcher,3596b4831ee2ea7812de753b32306835
4b92a3f7f964a520ac0c34e3,13065,"[{'id': 'ab4a3530-d68a-012e-5619-003048cad9da', 'name': ""McDonald's""}]",146,49.26838,-123.159543,CA,at Balsam St,"2391 4th Ave W (at Balsam St), Vancouver BC V6K 1P2",Vancouver,V6K 1P2,BC,America/Vancouver,McDonald's,3596b4831ee2ea7812de753b32306835
c769ebe8385c440770d70a08,13065,[],65,49.267964,-123.15675,CA,,"2272 4th Ave W, Vancouver BC V6K 1N8",Vancouver,V6K 1N8,BC,,Romios Greek Taverna,3596b4831ee2ea7812de753b32306835
593854eff8e64b91b46ed0e1,13065,[],159,49.268061,-123.159597,CA,,"2394 4th Ave W, Vancouver BC V6K 1P1",Vancouver,V6K 1P1,BC,,Peaceful Restaurant 和平饭店,3596b4831ee2ea7812de753b32306835
5bb776533e6148a980a6196e,13065,[],163,49.268365,-123.159704,CA,,"2394 4th Ave W, Vancouver BC V6K 1P1",Vancouver,V6K 1P1,BC,,New Kitsilano Restaurant,3596b4831ee2ea7812de753b32306835
3f8558c4f729416be7f07b88,13065,[],164,49.268082,-123.15968,CA,,"2394 4th Ave W, Vancouver BC V6K 1P1",Vancouver,V6K 1P1,BC,,Ho Rai Ya Japanese Restaurant,3596b4831ee2ea7812de753b32306835
6181feaec596493e70819c06,13065,[],195,49.267979,-123.154805,CA,,"2198 4th Ave W, Vancouver BC V6K 1N6",Vancouver,V6K 1N6,BC,,Lucky's Doughnuts,3596b4831ee2ea7812de753b32306835
53c4959b498ebad0cc0cdfb4,13065,[],104,49.261909,-123.103193,CA,E 10th Ave,"2601 Quebec St (E 10th Ave), Vancouver BC V5T 3A6",Vancouver,V5T 3A6,BC,America/Vancouver,The Federal Store,35eb539fb9298bb7e4f6759ca0256505
4f3c144be4b05966f654ffd6,13065,"[{'id': 'ab4bee40-d68a-012e-5619-003048cad9da', 'name': 'Subway'}]",145,49.262852,-123.103192,CA,,"98 Broadway E, Vancouver BC V5T 1V6",Vancouver,V5T 1V6,BC,America/Vancouver,Subway,35eb539fb9298bb7e4f6759ca0256505
50ef41f7e4b016fee4a9c3fe,13065,[],118,49.263218,-123.10444,CA,at Ontario Street,"1 Broadway E (at Ontario Street), Vancouver BC V5T 1V4",Vancouver,V5T 1V4,BC,America/Vancouver,Broadway Indochine Kitchen + Bar,35eb539fb9298bb7e4f6759ca0256505
2cc013b21b1c4dfb599e7061,13065,[],92,49.261797,-123.10586,CA,,"46 10th Ave W, Vancouver BC V5Y 1R6",Vancouver,V5Y 1R6,BC,,Tea Sparrow,35eb539fb9298bb7e4f6759ca0256505
690758f5806b487f4e7aa40a,13065,"[{'id': 'ab4bee40-d68a-012e-5619-003048cad9da', 'name': 'Subway'}]",113,49.262687,-123.103421,CA,,"8615 E Broadway, Vancouver BC V5T 1X7",Vancouver,V5T 1X7,BC,,Subway,35eb539fb9298bb7e4f6759ca0256505
531e42e3dedb4405a402c779,13065,[],136,49.262894,-123.106035,CA,,"60 Broadway W, Vancouver BC V5Y 1P2",Vancouver,V5Y 1P2,BC,,New Grand View Restaurant,35eb539fb9298bb7e4f6759ca0256505
b501a5ce8a144f8d8c32920a,13065,[],182,49.262759,-123.102373,CA,,"128 Broadway E, Vancouver BC V5T 1V9",Vancouver,V5T 1V9,BC,,Fami Pho,35eb539fb9298bb7e4f6759ca0256505
4fbbcacd30cb4eee1005e5c9,13065,[],198,49.263645,-123.105936,CA,,"42 8th Ave W, Vancouver BC V5Y 1M7",Vancouver,V5Y 1M7,BC,,Vera's Burger Shack,35eb539fb9298bb7e4f6759ca0256505
507dd57ae4b0f6ed551b6390,13065,[],193,49.263603,-123.125155,CA,,"943 Broadway W, Vancouver BC V5Z 4E1",Vancouver,V5Z 4E1,BC,America/Vancouver,Deja Brew,ace20c241ee38643c9060f290b215b9d
4ab2985af964a520886b20e3,13065,[],152,49.265765,-123.122257,CA,at Willow St.,"816W 6th Ave W (at Willow St.), Vancouver BC V5Z 1A6",Vancouver,V5Z 1A6,BC,America/Vancouver,Yanaki Sushi,ace20c241ee38643c9060f290b215b9d
5898f8a5af5c1411a1a2263d,13065,"[{'id': 'd5719cc0-d890-0132-61d3-7a163eb2a6fc', 'name': 'Tim Hortons'}]",130,49.265791,-123.122584,CA,Willow Street,"818 6th Ave W (Willow Street), Vancouver BC V5Z 1A6",Vancouver,V5Z 1A6,BC,America/Vancouver,Tim Hortons,ace20c241ee38643c9060f290b215b9d
4abee9acf964a520859020e3,13065,[],160,49.26559,-123.121999,CA,at Willow St.,"804W 6th Ave W (at Willow St.), Vancouver BC V5Z 1A6",Vancouver,V5Z 1A6,BC,America/Vancouver,Szechuan Chili Restaurant,ace20c241ee38643c9060f290b215b9d
4b4e3632f964a52072e526e3,13065,"[{'id': 'd5719cc0-d890-0132-61d3-7a163eb2a6fc', 'name': 'Tim Hortons'}]",171,49.263583,-123.123288,CA,at Laurel St.,"865 West Broadway (at Laurel St.), Vancouver BC V5Z 1J9",Vancouver,V5Z 1J9,BC,America/Vancouver,Tim Hortons,ace20c241ee38643c9060f290b215b9d
5f040c3774523a3e948cb6a1,13065,[],171,49.263541,-123.124014,CA,,"895 Broadway W, Vancouver BC V5Z 1J9",Vancouver,V5Z 1J9,BC,America/Vancouver,Halfday Tea + Flower,ace20c241ee38643c9060f290b215b9d
4e2ceb49e4cd3bc166a52a39,13065,[],173,49.264123,-123.122117,CA,Lougheed,"North Rd (Lougheed), Vancouver BC",Vancouver,,BC,America/Vancouver,Wings Tap & Grill,ace20c241ee38643c9060f290b215b9d
607a17ada8476a03b31e132b,13065,[],173,49.263514,-123.123908,CA,Laurel Street,"887 Broadway W (Laurel Street), Vancouver BC V5Z 1J9",Vancouver,V5Z 1J9,BC,America/Vancouver,Legendary Noodle,ace20c241ee38643c9060f290b215b9d
5c97f75f6fd626002cb57796,13065,[],178,49.263598,-123.123127,CA,,"865 Broadway W, Vancouver BC V5Z 1J9",Vancouver,V5Z 1J9,BC,America/Vancouver,Moderne Burger Burgerette,ace20c241ee38643c9060f290b215b9d
c42f66b940e3455aebdfa03b,13065,[],166,49.263588,-123.123531,CA,,"865 Broadway W, Vancouver BC V5Z 1J9",Vancouver,V5Z 1J9,BC,,Moderne Burger,ace20c241ee38643c9060f290b215b9d
59f44945a8924061b8cbe2fb,13065,[],170,49.263567,-123.124341,CA,,"1601 Broadway W, Vancouver BC V6J 1W9",Vancouver,V6J 1W9,BC,,Broadway Earl's,ace20c241ee38643c9060f290b215b9d
49023f9a33a547628a6a3ae3,13065,[],174,49.263572,-123.124584,CA,,"901 Broadway W, Vancouver BC V5Z 1K3",Vancouver,V5Z 1K3,BC,,New India Buffet & Restaurant Ltd,ace20c241ee38643c9060f290b215b9d
4b1b3111f964a52064f923e3,13065,[],171,49.263661,-123.130512,CA,Alder St,"1177 Broadway W (Alder St), Vancouver BC V6H 1G3",Vancouver,V6H 1G3,BC,America/Vancouver,Raga Restaurant,3aed670ccdcd94b966c0f505f8b028c7
4cc1de84cdb59c741a542c48,13065,[],178,49.26363,-123.131726,CA,at Alder St,"1215 Broadway W (at Alder St), Vancouver BC V6H 1G7",Vancouver,V6H 1G7,BC,America/Vancouver,Royal Seoul House,3aed670ccdcd94b966c0f505f8b028c7
4aa7ea42f964a520f94d20e3,13065,[],198,49.263609,-123.129859,CA,btwn Spruce and Alder,"1133 Broadway W (btwn Spruce and Alder), Vancouver BC V6H 1G1",Vancouver,V6H 1G1,BC,America/Vancouver,Tojo's Restaurant,3aed670ccdcd94b966c0f505f8b028c7
7ad7677d34834b7f893078f8,13065,[],182,49.265885,-123.128756,CA,,"2246 Spruce St, Vancouver BC V6H 2P3",Vancouver,V6H 2P3,BC,,BC Restaurant & Food Services Association,3aed670ccdcd94b966c0f505f8b028c7
263ee090f4b44a5e4742e8d8,13065,[],197,49.263841,-123.132799,CA,,"1245 Broadway W, Vancouver BC V6H 1G7",Vancouver,V6H 1G7,BC,,Kaman Kwok Inc,3aed670ccdcd94b966c0f505f8b028c7
545447e8498e88d56f84cb6b,13065,[],197,49.275755,-123.109158,CA,,"750 Pacific Blvd, Vancouver BC V6B 5E7",Vancouver,V6B 5E7,BC,America/Vancouver,Harbour Event Centre,1648ead5ea617d2cea115869d9516f5e
4aab0973f964a520a65820e3,13065,[],63,49.276955,-123.081676,CA,at Glen Dr,"1033 Venables St (at Glen Dr), Vancouver BC V6A 3R9",Vancouver,V6A 3R9,BC,America/Vancouver,La Casa Gelato,91035fe1d70b65c9cb8ec4a007af7c7f
5815754438fada27f6999ae5,13065,[],79,49.276934,-123.080701,CA,,"1123 Venables St, Vancouver BC V6A 2E3",Vancouver,V6A 2E3,BC,America/Vancouver,Luppolo Brewing Co,91035fe1d70b65c9cb8ec4a007af7c7f
5973f2976e46504a8bc6ebff,13065,[],167,49.282756,-123.092067,CA,,"566 Powell St, Vancouver BC V6A 1G9",Vancouver,V6A 1G9,BC,America/Vancouver,Dosanko,1ef5c4ff3f0b09422bb1597fd9d7568b
5398bf21498e67ef85f27013,13065,[],198,49.283184,-123.093564,CA,Jackson St,"477 Powell St (Jackson St), Vancouver BC V6A 1G7",Vancouver,V6A 1G7,BC,America/Vancouver,Gorilla Food,1ef5c4ff3f0b09422bb1597fd9d7568b
4dec007c18386283a40df77c,13065,[],127,49.267653,-123.074154,CA,McSpadden Avenue,"Commercial Dr (McSpadden Avenue), Vancouver BC",Vancouver,,BC,America/Vancouver,PazzaRella Pizza,475627e149c1a6ba73caac8d8d2fa617
61bba0ac726dd31bcdf7852c,13065,[],181,49.266083,-123.084323,CA,,"891 Great Northern Way, Vancouver BC V5T 1E1",Vancouver,V5T 1E1,BC,America/Vancouver,Steve’s Poké Bar,17a3320a52bcc62161908967f8a06613
4cf3fd1e6c29236affdd73a2,13065,[],97,49.279449,-123.065416,CA,,"562 Victoria Dr, Vancouver BC V5L 4E2",Vancouver,V5L 4E2,BC,America/Vancouver,A. Bosa and Company Ltd. Import Euro,aed214941445e0345aa3254805a9e8b8
4ab68343f964a520867720e3,13065,[],199,49.280874,-123.063346,CA,at Semlin Dr.,"2010 Hastings St E (at Semlin Dr.), Vancouver BC V5L 1T8",Vancouver,V5L 1T8,BC,America/Vancouver,On Lok Restaurant & Wun Tun House,aed214941445e0345aa3254805a9e8b8
4ca8e7f2d971b1f7a76d19e1,13065,[],146,49.281498,-123.066077,CA,Victoria Street,"1895 Hastings St E (Victoria Street), Vancouver BC V5L 1T3",Vancouver,V5L 1T3,BC,America/Vancouver,Pelican Seafood Restaurant,aed214941445e0345aa3254805a9e8b8
a32d11a2e5f84ae28aa1a58a,13065,[],146,49.28142,-123.065097,CA,,"1909E Hastings St E, Vancouver BC V5L 1T5",Vancouver,V5L 1T5,BC,,Oceanfood Sales Ltd,aed214941445e0345aa3254805a9e8b8
4aa7d40ff964a5206e4d20e3,13065,[],89,49.257306,-123.089824,CA,at Fraser & Kingsway,"663 15th Ave E (at Fraser & Kingsway), Vancouver BC V5T 2R6",Vancouver,V5T 2R6,BC,America/Vancouver,Les Faux Bourgeois,08c7a90bf297fde8c1f1156db13987d4
4f1995afe4b00583e823ffc4,13065,[],115,49.257296,-123.090229,CA,at Kingsway,"639 15th Ave E (at Kingsway), Vancouver BC V5T 2R6",Vancouver,V5T 2R6,BC,America/Vancouver,Matchstick Coffee,08c7a90bf297fde8c1f1156db13987d4
4f21e016e4b0c41c4ffda0ab,13065,[],115,49.257337,-123.090395,CA,at Kingsway,"633 15th Ave E (at Kingsway), Vancouver BC V5T 3K5",Vancouver,V5T 3K5,BC,America/Vancouver,The Gluten Free Epicurean,08c7a90bf297fde8c1f1156db13987d4
55fcdcd7498e3e59b7c5dd60,13065,[],120,49.257445,-123.091053,CA,Fraser,"615 Kingsway (Fraser), Vancouver BC V5T 3K5",Vancouver,V5T 3K5,BC,America/Vancouver,Osteria Savio Volpe,08c7a90bf297fde8c1f1156db13987d4
4f9360d7e4b0ab5f0a03510d,13065,[],117,49.256878,-123.08922,CA,at Fraser St,"701 Kingsway (at Fraser St), Vancouver BC V5T 3K6",Vancouver,V5T 3K6,BC,America/Vancouver,Sal y Limon,08c7a90bf297fde8c1f1156db13987d4
51e464e3498efd152b1dd767,13065,[],143,49.257466,-123.091136,CA,,"603 Kingsway, Vancouver BC V5T 3K5",Vancouver,V5T 3K5,BC,America/Vancouver,Los Cuervos Taqueria & Cantina,08c7a90bf297fde8c1f1156db13987d4
4f95b99fe4b0f888deccf2f3,13065,[],186,49.256333,-123.090147,CA,at E 16th Ave.,"3201 Fraser St (at E 16th Ave.), Vancouver BC V5V 4B8",Vancouver,V5V 4B8,BC,America/Vancouver,BKH Jerky,08c7a90bf297fde8c1f1156db13987d4
572d37e6498e334d71acf7ab,13065,[],123,49.256574,-123.089113,CA,,"701 Kingsway, Vancouver BC V5T 3K6",Vancouver,V5T 3K6,BC,America/Vancouver,Straight Outta Brooklyn NYC Pizzeria,08c7a90bf297fde8c1f1156db13987d4
4ad247b0f964a520a2e020e3,13065,[],142,49.256821,-123.089215,CA,at Fraser St,"701 Kingsway (at Fraser St), Vancouver BC V5T 3K6",Vancouver,V5T 3K6,BC,America/Vancouver,Ba-Le Sandwich Shop,08c7a90bf297fde8c1f1156db13987d4
4b2e7cddf964a52015e124e3,13065,[],111,49.257347,-123.08999,CA,Fraser,"651E 15th Ave E (Fraser), Vancouver BC V5T 2R6",Vancouver,V5T 2R6,BC,America/Vancouver,Lions Den Cafe,08c7a90bf297fde8c1f1156db13987d4
5d43c642735c2d0007fa9fc2,13065,[],148,49.256838,-123.090839,CA,,"646 Kingsway, Vancouver BC V5T 3K4",Vancouver,V5T 3K4,BC,America/Vancouver,Zocalo Modern Cantina,08c7a90bf297fde8c1f1156db13987d4
23431ff2f6dd4abafe917b5f,13065,[],104,49.257012,-123.089313,CA,,"701 Kingsway, Vancouver BC V5T 3K6",Vancouver,V5T 3K6,BC,,Va-Le Sandwich Shop,08c7a90bf297fde8c1f1156db13987d4
69cb6ac4c9b44d225f83a806,13065,[],149,49.256755,-123.090507,CA,,"670 Kingsway, Vancouver BC V5T 3K4",Vancouver,V5T 3K4,BC,,Yat Ming Seafood Market,08c7a90bf297fde8c1f1156db13987d4
5270557011d2aed0688854b3,13065,[],108,49.284213,-123.069634,CA,btwn Commercial & Salisbury,"1725 Powell St (btwn Commercial & Salisbury), Vancouver BC V5L 1H6",Vancouver,V5L 1H6,BC,America/Vancouver,Odd Society Spirits,c52e51e3288a00993bdf892fdc2c2c2c
4b5a2cfbf964a5202ab228e3,13065,[],139,49.28202,-123.070178,CA,btwn E Hastings & Franklin,"310 Commercial Dr (btwn E Hastings & Franklin), Vancouver BC V5L 3V6",Vancouver,V5L 3V6,BC,America/Vancouver,Storm Brewing Ltd,c52e51e3288a00993bdf892fdc2c2c2c
5a4826f1e55d8b0532c25fa2,13065,[],95,49.284167,-123.070117,CA,Commercial Drive,"1701 Powell St (Commercial Drive), Vancouver BC V5L 5C9",Vancouver,V5L 5C9,BC,America/Vancouver,The Narcissus,c52e51e3288a00993bdf892fdc2c2c2c
543458cd3ea2491e100ca09c,13065,[],105,49.284146,-123.070034,CA,,"1701 Powell St, Vancouver BC V5L 5C9",Vancouver,V5L 5C9,BC,,Arc Cafe,c52e51e3288a00993bdf892fdc2c2c2c
09553b9867c545fe00c24195,13065,[],147,49.283188,-123.068411,CA,,"1795 Pandora St, Vancouver BC V5L 1L8",Vancouver,V5L 1L8,BC,,Sung Fish Co Ltd,c52e51e3288a00993bdf892fdc2c2c2c
38867ef8bedb49a09d451c37,13065,[],183,49.282104,-123.072295,CA,,"1600 Franklin St, Vancouver BC",Vancouver,,BC,,Hustle Pizza Co,c52e51e3288a00993bdf892fdc2c2c2c
4aa81a45f964a520564f20e3,13065,[],197,49.301235,-123.157091,CA,,"7501 Stanley Park Dr, Vancouver BC V6G 3E2",Vancouver,V6G 3E2,BC,America/Vancouver,The Teahouse Restaurant,45a4c865db23e1cad0209afa5a799de0
4c35136fed37a593e0027003,13065,[],60,49.303073,-123.155788,CA,,"In Stanley Pk, Vancouver BC",Vancouver,,BC,America/Vancouver,3rd Beach,45a4c865db23e1cad0209afa5a799de0
4aa80271f964a520af4e20e3,13065,[],92,49.274082,-123.069911,CA,,"1191 Commercial Dr, Vancouver BC V5L 3X3",Vancouver,V5L 3X3,BC,America/Vancouver,Biercraft,b562f08327af465e4531e20226789489
4aa7350bf964a520464c20e3,13065,[],71,49.273731,-123.069395,CA,btwn William & Charles,"1212 Commercial Dr (btwn William & Charles), Vancouver BC V5L 3X4",Vancouver,V5L 3X4,BC,America/Vancouver,Havana,b562f08327af465e4531e20226789489
502ef97ce4b047ef9a41d5aa,13065,[],37,49.273448,-123.069371,CA,btwn William & Charles St,"1260 Commercial Dr (btwn William & Charles St), Vancouver BC V5L 3X4",Vancouver,V5L 3X4,BC,America/Vancouver,Absinthe Bistro,b562f08327af465e4531e20226789489
4aa9b6fbf964a520fe5420e3,13065,[],60,49.273618,-123.069385,CA,at William St.,"1230 Commercial Dr (at William St.), Vancouver BC V5L 3X4",Vancouver,V5L 3X4,BC,America/Vancouver,Fets Whisky Kitchen,b562f08327af465e4531e20226789489
4b8f0753f964a5207a4533e3,13065,[],153,49.271667,-123.069788,CA,at Grant St.,"1437 Commercial Dr (at Grant St.), Vancouver BC V5L 3X8",Vancouver,V5L 3X8,BC,America/Vancouver,Ginger Sushi,b562f08327af465e4531e20226789489
4f8e0f4ce4b018d8f5fde367,13065,[],103,49.272336,-123.069358,CA,at Kitchener St,"1380 Commercial Dr (at Kitchener St), Vancouver BC V5L 3X6",Vancouver,V5L 3X6,BC,America/Vancouver,Famoso Neapolitan Pizzeria,b562f08327af465e4531e20226789489
511ffd76e4b0781dd9ddbf08,13065,[],77,49.272506,-123.069372,CA,btwn Kitchener & Charles,"1340 Commercial Dr (btwn Kitchener & Charles), Vancouver BC V5L 3X6",Vancouver,V5L 3X6,BC,America/Vancouver,Scandilicious,b562f08327af465e4531e20226789489
4aad5edcf964a520f15f20e3,13065,[],116,49.272017,-123.069412,CA,at Kitchener St,"1404 Commercial Dr (at Kitchener St), Vancouver BC V5L 3X9",Vancouver,V5L 3X9,BC,America/Vancouver,Marcello Ristorante & Pizzeria,b562f08327af465e4531e20226789489
4ce833c6fe90a35d053c410e,13065,[],172,49.274756,-123.069725,CA,at Napier,"1105 Commercial Dr (at Napier), Vancouver BC V5L 3X3",Vancouver,V5L 3X3,BC,America/Vancouver,Sweet Cherubim,b562f08327af465e4531e20226789489
4aa9ac06f964a520ca5420e3,13065,[],105,49.274277,-123.06936,CA,William St,"1150 Commercial Dr (William St), Vancouver BC V5L 3X2",Vancouver,V5L 3X2,BC,America/Vancouver,Joe's Cafe,b562f08327af465e4531e20226789489
4d4de106d6f3224bc258a1a6,13065,[],89,49.272269,-123.069758,CA,kitchener street,"1393 Commercial Dr (kitchener street), Vancouver BC V5L 3X5",Vancouver,V5L 3X5,BC,America/Vancouver,Cafe du Soleil,b562f08327af465e4531e20226789489
5256c3bf498e4a720085f2cf,13065,[],153,49.274442,-123.069131,CA,,"1128 Commercial Dr, Vancouver BC V5L 3X2",Vancouver,V5L 3X2,BC,America/Vancouver,Sula Indian Restaurant,b562f08327af465e4531e20226789489
4f89dbf9e4b0af4d4e524dbb,13065,[],164,49.271667,-123.069788,CA,btwn Kitchener & Grant,"1441 Commercial Dr (btwn Kitchener & Grant), Vancouver BC V5L 3X8",Vancouver,V5L 3X8,BC,America/Vancouver,Tatsu Japanese Bistro,b562f08327af465e4531e20226789489
5c55eb00418686002c9cdc8e,13065,[],98,49.27229,-123.069841,CA,,"1399 Commercial Dr, Vancouver BC V5L 3X5",Vancouver,V5L 3X5,BC,America/Vancouver,Livia Bakery,b562f08327af465e4531e20226789489
555df6c9498ec05757a9ef70,13065,[],186,49.274709,-123.069316,CA,Napier,"1102 Commercial Dr (Napier), Vancouver BC V5L 3X2",Vancouver,V5L 3X2,BC,America/Vancouver,Moja Coffee,b562f08327af465e4531e20226789489
4aa86b72f964a520375120e3,13065,[],81,49.272506,-123.069372,CA,btwn Charles & Kitchener,"1342 Commercial Dr (btwn Charles & Kitchener), Vancouver BC V5L 3X6",Vancouver,V5L 3X6,BC,America/Vancouver,Memphis Blues Barbeque House,b562f08327af465e4531e20226789489
4ab69af4f964a5201a7820e3,13065,[],130,49.271826,-123.069315,CA,kitchener,"1414 Commercial Dr (kitchener), Vancouver BC V5L 3X9",Vancouver,V5L 3X9,BC,America/Vancouver,Sake Maki,b562f08327af465e4531e20226789489
4aa6ba15f964a520d44a20e3,13065,[],166,49.271564,-123.069374,CA,at Kitchener St.,"1438 Commercial Dr (at Kitchener St.), Vancouver BC V5L 3X9",Vancouver,V5L 3X9,BC,America/Vancouver,Vera's on the Drive,b562f08327af465e4531e20226789489
4aab1084f964a520c75820e3,13065,[],179,49.271667,-123.069788,CA,at Grant St,"1447 Commercial Dr (at Grant St), Vancouver BC V5L 3X8",Vancouver,V5L 3X8,BC,America/Vancouver,The Charlatan,b562f08327af465e4531e20226789489
57dc3a9b498e06f25a983709,13065,[],38,49.273314,-123.069279,CA,Charles,"1268 Commercial Dr (Charles), Vancouver BC V5L 3X4",Vancouver,V5L 3X4,BC,America/Vancouver,City Bistro European Food and DELI,b562f08327af465e4531e20226789489
5ddc44f3ec276a00087c44f2,13065,[],39,49.273237,-123.069191,CA,Charles Street,"1268 Commercial Dr (Charles Street), Vancouver BC V5L 3X4",Vancouver,V5L 3X4,BC,America/Vancouver,Pacific Poke,b562f08327af465e4531e20226789489
4c1246c08aedd13a66405137,13065,[],62,49.272758,-123.069718,CA,Charles,"1321 Commercial Dr (Charles), Vancouver BC V5L 3X5",Vancouver,V5L 3X5,BC,America/Vancouver,Abruzzo Cappuccino Bar,b562f08327af465e4531e20226789489
54c3105e498ee8c2a66f863c,13065,[],109,49.272233,-123.069836,CA,,"1399 Commercial Dr, Vancouver BC V5L 3X5",Vancouver,V5L 3X5,BC,America/Vancouver,Al Basha,b562f08327af465e4531e20226789489
58fd635835dfa707a416c32a,13065,[],123,49.274174,-123.069838,CA,,"1179 Commercial Dr, Vancouver BC V5L 3X3",Vancouver,V5L 3X3,BC,America/Vancouver,Thai Basil Restaurant,b562f08327af465e4531e20226789489
5ceddc19b3d8e2002c05916a,13065,[],135,49.271939,-123.069324,CA,,"1408 Commercial Dr, Vancouver BC V5L 3X9",Vancouver,V5L 3X9,BC,America/Vancouver,Harbour Oyster + Bar,b562f08327af465e4531e20226789489
5a3c6926898bdc16c1092eb1,13065,[],136,49.274416,-123.069696,CA,,"1134 Commercial Dr, Vancouver BC V5L 3X2",Vancouver,V5L 3X2,BC,America/Vancouver,Kulinarya,b562f08327af465e4531e20226789489
62840fd09850162b791dfdb7,13065,[],165,49.271574,-123.069861,CA,,"1441 Commercial Dr, Vancouver BC V5L 3X8",Vancouver,V5L 3X8,BC,America/Vancouver,Cozen,b562f08327af465e4531e20226789489
606b7d432ec75a04d0601e2f,13065,[],179,49.27162,-123.069378,CA,,"1468 Commercial Dr, Vancouver BC V5L 3X9",Vancouver,V5L 3X9,BC,America/Vancouver,Merci Beaucoup Cafe,b562f08327af465e4531e20226789489
5d959d36718dfa0008f72e41,13065,[],183,49.274709,-123.069316,CA,Napier,"1110 Commercial Dr (Napier), Vancouver BC V5L 3X2",Vancouver,V5L 3X2,BC,America/Vancouver,The Pizza Castle & Indian Curry,b562f08327af465e4531e20226789489
96103c4cdaea464346b37d68,13065,[],41,49.273221,-123.069352,CA,,"1276 Commercial Dr, Vancouver BC V5L 3X4",Vancouver,V5L 3X4,BC,,Turk's Coffee Exchange,b562f08327af465e4531e20226789489
80cc98ce67804e6d78be6983,13065,[],59,49.273273,-123.069113,CA,,"1268 Commercial Dr, Vancouver BC V5L 3X4",Vancouver,V5L 3X4,BC,,Pacific Poke,b562f08327af465e4531e20226789489
87902c62490e48b14e08e932,13065,[],61,49.273329,-123.069118,CA,,"1260 Commercial Dr, Vancouver BC V5L 3X4",Vancouver,V5L 3X4,BC,,Oca Pastificio,b562f08327af465e4531e20226789489
793d7457b4be49bce4542e80,13065,[],110,49.274097,-123.069751,CA,,"1191 Commercial Dr, Vancouver BC V5L 3X3",Vancouver,V5L 3X3,BC,,Santos Tapas Restaurant,b562f08327af465e4531e20226789489
2f24a6023e4f45439ce74f76,13065,[],125,49.272017,-123.069412,CA,,"1404 Commercial Dr, Vancouver BC V5L 3X9",Vancouver,V5L 3X9,BC,,Marcellos,b562f08327af465e4531e20226789489
7b5f0d08b398478278099acc,13065,[],127,49.274252,-123.069926,CA,,"1179 Commercial Dr, Vancouver BC V5L 3X3",Vancouver,V5L 3X3,BC,,PhoEver Fresh Vietnamese Cuisine,b562f08327af465e4531e20226789489
73e6dc9c72784d16896bdc2d,13065,[],132,49.271914,-123.06989,CA,,"1417 Commercial Dr, Vancouver BC V5L 3X8",Vancouver,V5L 3X8,BC,,Auntie Jen's Pizzeria,b562f08327af465e4531e20226789489
243916511d084f0b7f8f25ae,13065,[],157,49.271687,-123.069871,CA,,"1441 Commercial Dr, Vancouver BC",Vancouver,,BC,,The Pond on Commercial Drive,b562f08327af465e4531e20226789489
a724edfe966d49f771d58115,13065,[],159,49.271667,-123.069788,CA,,"1441 Commercial Dr, Vancouver BC V5L 3X8",Vancouver,V5L 3X8,BC,,Sankyu Lounge,b562f08327af465e4531e20226789489
ba57e322fdc14ed7da1f9d19,13065,[],162,49.271677,-123.069383,CA,,"1438 Commercial Dr, Vancouver BC V5L 3X9",Vancouver,V5L 3X9,BC,,Vera's Burger Shack,b562f08327af465e4531e20226789489
35626381b7ad41eb88f4cfe1,13065,[],172,49.271553,-123.069778,CA,,"1468 Commercial Dr, Vancouver BC V5L 3X9",Vancouver,V5L 3X9,BC,,Bagel Street Cafe,b562f08327af465e4531e20226789489
d812a3c94a8440c3f2bf72c6,13065,[],176,49.274611,-123.069145,CA,,"1110 Commercial Dr, Vancouver BC V5L 3X2",Vancouver,V5L 3X2,BC,,Hustle Pizza Co,b562f08327af465e4531e20226789489
509ff4a5e4b057cac4d322c9,13065,[],168,49.278582,-123.093335,CA,at Jackson St,"501 Georgia St E (at Jackson St), Vancouver BC V6A 1Z8",Vancouver,V6A 1Z8,BC,America/Vancouver,Finch's Market,9a48ca226f82f52d02707b054ebc7e9e
4adeb7a8f964a520ad7621e3,13065,[],19,49.277325,-123.091849,CA,Princess,"598 Union St (Princess), Vancouver BC V6A 2B8",Vancouver,V6A 2B8,BC,America/Vancouver,Benny's Market,9a48ca226f82f52d02707b054ebc7e9e
54bea64f498ec3ed3dde9a10,13065,[],92,49.268876,-123.102894,CA,at E 2nd Ave,"1829 Quebec St (at E 2nd Ave), Vancouver BC V5T 2Z3",Vancouver,V5T 2Z3,BC,America/Vancouver,Earnest Ice Cream,9a5478470b56379c31cf4e671584d5cc
5863012d3e8835567907c4fe,13065,[],8,49.268088,-123.10307,CA,Main St,"64 3rd Ave E (Main St), Vancouver BC V5T 1C3",Vancouver,V5T 1C3,BC,America/Vancouver,Fife Bakery,9a5478470b56379c31cf4e671584d5cc
4ab2c5fbf964a520446c20e3,13065,[],99,49.26727,-123.103568,CA,btwn Ontario & Quebec,"54B 4th Ave E (btwn Ontario & Quebec), Vancouver BC V5T 1E8",Vancouver,V5T 1E8,BC,America/Vancouver,R & B Brewing Inc,9a5478470b56379c31cf4e671584d5cc
55d97956498e2c299b5830c0,13065,[],110,49.268608,-123.104493,CA,at E 2nd Ave,"1830 Ontario St (at E 2nd Ave), Vancouver BC V5T 2W6",Vancouver,V5T 2W6,BC,America/Vancouver,Faculty Brewing Co,9a5478470b56379c31cf4e671584d5cc
4b5a3453f964a52010b428e3,13065,[],108,49.268077,-123.10169,CA,btwn Main & Quebec,"146 3rd Ave E (btwn Main & Quebec), Vancouver BC V5T 1C8",Vancouver,V5T 1C8,BC,America/Vancouver,Nuba Natural Foods,9a5478470b56379c31cf4e671584d5cc
4b883a16f964a520d0e831e3,13065,[],106,49.26836,-123.101714,CA,Between Quebec & Main,"143 3rd Ave E (Between Quebec & Main), Vancouver BC V5T 1C7",Vancouver,V5T 1C7,BC,America/Vancouver,Swiss Bakery,9a5478470b56379c31cf4e671584d5cc
57951723498e1e1d10b665a7,13065,[],156,49.269601,-123.102469,CA,2nd Avenue,"1751 Quebec St (2nd Avenue), Vancouver BC V5T 0E7",Vancouver,V5T 0E7,BC,America/Vancouver,Tractor - Olympic Village,9a5478470b56379c31cf4e671584d5cc
4aae6272f964a520f06120e3,13065,[],107,49.268608,-123.104493,CA,at 3rd Ave.,"1836 Ontario St (at 3rd Ave.), Vancouver BC V5T 2W6",Vancouver,V5T 2W6,BC,America/Vancouver,Argo Cafe,9a5478470b56379c31cf4e671584d5cc
5158c39fe4b03dbb60d52ad6,13065,[],193,49.266652,-123.103759,CA,btwn Ontario & Quebec,"43 5th Ave E (btwn Ontario & Quebec), Vancouver BC V5T 1G7",Vancouver,V5T 1G7,BC,America/Vancouver,Peaceful Restaurant,9a5478470b56379c31cf4e671584d5cc
4aa734e0f964a520454c20e3,13065,[],188,49.268334,-123.100495,CA,at E 3rd Ave,"1898 Main St (at E 3rd Ave), Vancouver BC V5T 3B7",Vancouver,V5T 3B7,BC,America/Vancouver,Narrow Lounge,9a5478470b56379c31cf4e671584d5cc
5b3edf948d0a53002c0de71b,13065,[],122,49.269396,-123.103425,CA,,"97 2nd Ave E, Vancouver BC V5T 1B3",Vancouver,V5T 1B3,BC,America/Vancouver,Brewhall,9a5478470b56379c31cf4e671584d5cc
55abd548498e1966a0ebd1f0,13065,[],117,49.26903,-123.103069,CA,,"78 2nd Ave E, Vancouver BC V5T 1B1",Vancouver,V5T 1B1,BC,America/Vancouver,Glory Juice,9a5478470b56379c31cf4e671584d5cc
5b4a4f7c610f04002c9239fe,13065,[],139,49.269468,-123.104161,CA,,"25E 2Nd Ave E 2Nd, Vancouver BC V5T 1B3",Vancouver,V5T 1B3,BC,America/Vancouver,Hon's Wonton House,9a5478470b56379c31cf4e671584d5cc
534b1efb498ea14e2266bdc0,13065,[],145,49.269036,-123.104205,CA,at Ontario St,"6E 2Nd Ave E 2Nd (at Ontario St), Vancouver BC V5T 1B1",Vancouver,V5T 1B1,BC,America/Vancouver,Manna Sushi,9a5478470b56379c31cf4e671584d5cc
61c2341b7c4aea191063dcdc,13065,[],186,49.266574,-123.103671,CA,,"43 5th Ave E, Vancouver BC V5T 1G7",Vancouver,V5T 1G7,BC,America/Vancouver,Blaze Gourmet Burgers,9a5478470b56379c31cf4e671584d5cc
c2f22b44b5a747312d29ecb6,13065,[],45,49.268078,-123.102582,CA,,"54 4th Ave E, Vancouver BC V5T 1E8",Vancouver,V5T 1E8,BC,,R&B Ale & Pizza House,9a5478470b56379c31cf4e671584d5cc
578c3c00498ee0c02beb38ec,13065,[],55,49.2814,-123.085056,CA,,"895 Hastings St E, Vancouver BC V6A 1R8",Vancouver,V6A 1R8,BC,America/Vancouver,Strathcona Beer Co,b428c0e64d9b9fdb3bf8e85c95ffdf6b
53bee9ba498ecf83180e97d5,13065,[],41,49.281219,-123.084553,CA,,"901 Hastings St E, Vancouver BC V6A 1R9",Vancouver,V6A 1R9,BC,America/Vancouver,Liquids and Solids,b428c0e64d9b9fdb3bf8e85c95ffdf6b
eb23d06b0c544e45e2cda009,13065,[],48,49.28088,-123.085417,CA,,"874 Hastings St E, Vancouver BC V6A 1R6",Vancouver,V6A 1R6,BC,,Red Way,b428c0e64d9b9fdb3bf8e85c95ffdf6b
3d606e1fb82149a9e34dad81,13065,[],86,49.281246,-123.085773,CA,,"855E Hastings St E, Vancouver BC V6A 1R8",Vancouver,V6A 1R8,BC,,Dim Sum King,b428c0e64d9b9fdb3bf8e85c95ffdf6b
c7a1c18eaa704b15fcea7bea,13065,[],120,49.281208,-123.083173,CA,,"957 Hastings St E, Vancouver BC V6A 0H1",Vancouver,V6A 0H1,BC,,VV Tapas Lounge,b428c0e64d9b9fdb3bf8e85c95ffdf6b
71e24e8b1e34451b792b8592,13065,[],193,49.279839,-123.08257,CA,,"1000 Pender St W, Vancouver BC V6B 2T2",Vancouver,V6B 2T2,BC,,Aussie Pie Guy,b428c0e64d9b9fdb3bf8e85c95ffdf6b
b7752c3305e64a5466f33347,13065,[],117,49.2842,-123.143137,CA,,"1700 Beach Ave, Vancouver BC",Vancouver,,BC,,Gratta d' Oro,8e93d0da1ee6caadf21ed9575b5fa9da
574b79fe498edfad31d0ae14,13065,[],119,49.312701,-123.142577,CA,,"5601 Stanley Park Dr, Vancouver BC",Vancouver,,BC,America/Vancouver,Prospect Point - Stanley Park,844aa75af0d3235a86ff827c81395afd
4ab55c9ef964a520317420e3,13065,[],128,49.312644,-123.142572,CA,,"5601 Stanley Park Dr, Vancouver BC",Vancouver,,BC,America/Vancouver,Prospect Point Café,844aa75af0d3235a86ff827c81395afd
af999039332c4952549abb0d,13065,[],111,49.312552,-123.142645,CA,,"5601 Stanley Park Dr, Vancouver BC V6G 3E2",Vancouver,V6G 3E2,BC,,Prospect Point Cafe & Gift Shop,844aa75af0d3235a86ff827c81395afd
4aa81803f964a520454f20e3,13065,[],27,49.275933,-123.124585,CA,at Richards St,"508 Davie St (at Richards St), Vancouver BC V6B 2G4",Vancouver,V6B 2G4,BC,America/Vancouver,Nuba Restaurant Group Inc,e9b37f2d9b7b2e2e3ade73f13acb69b2
4aaa9910f964a520875620e3,13065,[],34,49.275784,-123.123761,CA,at Richards St.,"477 Davie St (at Richards St.), Vancouver BC V6B 2G2",Vancouver,V6B 2G2,BC,America/Vancouver,Coo Coo Coffee,e9b37f2d9b7b2e2e3ade73f13acb69b2
598b63f946e1b670969fce47,13065,[],79,49.276211,-123.125258,CA,at Seymour St,"560 Davie St (at Seymour St), Vancouver BC V6B 2G4",Vancouver,V6B 2G4,BC,America/Vancouver,Chancho Tortilleria,e9b37f2d9b7b2e2e3ade73f13acb69b2
4e2901b5b61c41a2f8a38ab3,13065,[],163,49.275181,-123.122007,CA,btwn Davie & Helmcken St,"1168 Hamilton St (btwn Davie & Helmcken St), Vancouver BC V6B 2S2",Vancouver,V6B 2S2,BC,America/Vancouver,The Flying Pig Yaletown,e9b37f2d9b7b2e2e3ade73f13acb69b2
4aa74bb8f964a520a14c20e3,13065,[],156,49.274378,-123.123236,CA,at Drake St,"1228 Hamilton St (at Drake St), Vancouver BC V6B 6L2",Vancouver,V6B 6L2,BC,America/Vancouver,Rodney's Oyster House,e9b37f2d9b7b2e2e3ade73f13acb69b2
4b4fdbd2f964a520c91727e3,13065,[],147,49.27512,-123.12265,CA,at Davie St,"1193 Hamilton St (at Davie St), Vancouver BC V6B 5P6",Vancouver,V6B 5P6,BC,America/Vancouver,Hapa Izakaya,e9b37f2d9b7b2e2e3ade73f13acb69b2
5b9032b4345cbe00398a8d6a,13065,[],196,49.274404,-123.126239,CA,btwn Drake & Pacific,"1328 Richards St (btwn Drake & Pacific), Vancouver BC V6B 3G6",Vancouver,V6B 3G6,BC,America/Vancouver,Matchstick Coffee Roasters,e9b37f2d9b7b2e2e3ade73f13acb69b2
4aa82326f964a520884f20e3,13065,[],188,49.275629,-123.121801,CA,btwn Davie St. & Helmcken St.,"1133 Hamilton St (btwn Davie St. & Helmcken St.), Vancouver BC V6B 5P6",Vancouver,V6B 5P6,BC,America/Vancouver,Cioppino's Mediterranean Grill Inc,e9b37f2d9b7b2e2e3ade73f13acb69b2
4aa94599f964a520cc5220e3,13065,[],142,49.275084,-123.122728,CA,at Hamilton St.,"357 Davie St (at Hamilton St.), Vancouver BC V6B 1R2",Vancouver,V6B 1R2,BC,America/Vancouver,Cactus Club Cafe Yaletown,e9b37f2d9b7b2e2e3ade73f13acb69b2
4aa82bf1f964a520ce4f20e3,13065,[],137,49.276654,-123.125701,CA,at Seymour St,"616 Davie St (at Seymour St), Vancouver BC V6B 2G5",Vancouver,V6B 2G5,BC,America/Vancouver,Yamato Sushi Restaurant Inc,e9b37f2d9b7b2e2e3ade73f13acb69b2
5a2c661e51950e7c0eec7fb5,13065,[],132,49.276577,-123.125614,CA,btwn Granville & Seymour,"620 Davie St (btwn Granville & Seymour), Vancouver BC V6B 2G5",Vancouver,V6B 2G5,BC,America/Vancouver,Manoush'eh,e9b37f2d9b7b2e2e3ade73f13acb69b2
4aa7b956f964a5200b4d20e3,13065,[],80,49.27531,-123.12364,CA,at Homer St.,"402 Davie St (at Homer St.), Vancouver BC V6B 2G3",Vancouver,V6B 2G3,BC,America/Vancouver,JJ Bean Coffee Roasters - Yaletown,e9b37f2d9b7b2e2e3ade73f13acb69b2
4aa82562f964a520964f20e3,13065,[],103,49.275022,-123.123372,CA,at Davie St.,"1208 Homer St (at Davie St.), Vancouver BC V6B 2Y5",Vancouver,V6B 2Y5,BC,America/Vancouver,Yaletown Gelato,e9b37f2d9b7b2e2e3ade73f13acb69b2
558a158b498ecbc9ee873953,13065,[],76,49.275259,-123.123879,CA,Homer Street,"412 Davie St (Homer Street), Vancouver BC V6B 2G3",Vancouver,V6B 2G3,BC,America/Vancouver,Menchies,e9b37f2d9b7b2e2e3ade73f13acb69b2
4b82f845f964a52016f030e3,13065,[],169,49.276829,-123.12596,CA,at Granville St.,"636 Davie St (at Granville St.), Vancouver BC V6B 2G5",Vancouver,V6B 2G5,BC,America/Vancouver,Basil Pasta Bar,e9b37f2d9b7b2e2e3ade73f13acb69b2
4aa94944f964a520e65220e3,13065,[],189,49.274059,-123.124182,CA,at Drake St.,"1283 Hamilton St (at Drake St.), Vancouver BC V6B 6K3",Vancouver,V6B 6K3,BC,America/Vancouver,Soho Billiards,e9b37f2d9b7b2e2e3ade73f13acb69b2
4aa7332cf964a520414c20e3,13065,[],178,49.27461,-123.122607,CA,at Hamilton St,"350 Davie St (at Hamilton St), Vancouver BC V6B 5Z6",Vancouver,V6B 5Z6,BC,America/Vancouver,Opus Bar,e9b37f2d9b7b2e2e3ade73f13acb69b2
5f8a7dd8a02efd7a81796559,13065,[],17,49.27566,-123.124156,CA,,"350 Davie St, Vancouver BC V6B 5Z6",Vancouver,V6B 5Z6,BC,America/Vancouver,Capo & the Spritz,e9b37f2d9b7b2e2e3ade73f13acb69b2
4aa80ad7f964a520ed4e20e3,13065,[],188,49.276025,-123.121835,CA,at Helmcken St,"1116 Homer St (at Helmcken St), Vancouver BC V6B 2X6",Vancouver,V6B 2X6,BC,America/Vancouver,O-Cha Tea Bar,e9b37f2d9b7b2e2e3ade73f13acb69b2
545a9aac498e653625a4f9d3,13065,[],156,49.274569,-123.123333,CA,,"1233 Hamilton St, Vancouver BC V6B 6K3",Vancouver,V6B 6K3,BC,America/Vancouver,Taboo Kitchen,e9b37f2d9b7b2e2e3ade73f13acb69b2
60e0c42f0e501b1ba849028b,13065,[],89,49.276211,-123.125258,CA,,"572 Davie St, Vancouver BC V6B 2G4",Vancouver,V6B 2G4,BC,America/Vancouver,Noah's Cafe,e9b37f2d9b7b2e2e3ade73f13acb69b2
4aa9e45bf964a5207c5520e3,13065,[],173,49.276829,-123.12596,CA,btw Seymour & Granville,"656 Davie St (btw Seymour & Granville), Vancouver BC V6B 2G5",Vancouver,V6B 2G5,BC,America/Vancouver,Jako Japanese Restaurant,e9b37f2d9b7b2e2e3ade73f13acb69b2
58323d5e9dc8d00576d76940,13065,[],114,49.276556,-123.125531,CA,,"612 Davie St, Vancouver BC V6B 2G5",Vancouver,V6B 2G5,BC,America/Vancouver,Benchmark Bar & Grill Inc,e9b37f2d9b7b2e2e3ade73f13acb69b2
6135011651d11f05c6b1e741,13065,[],119,49.276777,-123.125306,CA,Seymour,"605 Davie St (Seymour), Vancouver BC V6B 2G6",Vancouver,V6B 2G6,BC,America/Vancouver,Perfecto Cafe,e9b37f2d9b7b2e2e3ade73f13acb69b2
5dabd7aac224f40008f0412d,13065,[],148,49.274332,-123.123719,CA,,"1257 Hamilton St, Vancouver BC V6B 6K3",Vancouver,V6B 6K3,BC,America/Vancouver,Saigon Xua,e9b37f2d9b7b2e2e3ade73f13acb69b2
5d7adb967749990007e35422,13065,[],153,49.274533,-123.123411,CA,Hamilton,"1233 Hamilton St (Hamilton), Vancouver BC V6B 6K3",Vancouver,V6B 6K3,BC,America/Vancouver,Grand Chinese Restaurant - Yaletown,e9b37f2d9b7b2e2e3ade73f13acb69b2
4db74e01a86ed8d46c71e56f,13065,[],199,49.274183,-123.125571,CA,,"1100 Granville St, Vancouver BC V6Z 2B6",Vancouver,V6Z 2B6,BC,America/Vancouver,Umada Japanese,e9b37f2d9b7b2e2e3ade73f13acb69b2
4029c5337c5542f21f254e7d,13065,[],38,49.275882,-123.124824,CA,,"518 Davie St, Vancouver BC V6B 2G4",Vancouver,V6B 2G4,BC,,Jusu Bar,e9b37f2d9b7b2e2e3ade73f13acb69b2
6818359270f843ade6288a5f,13065,[],43,49.275351,-123.124698,CA,,"1240 Richards St, Vancouver BC V6B 3G2",Vancouver,V6B 3G2,BC,,Diavolo Restaurant,e9b37f2d9b7b2e2e3ade73f13acb69b2
95e710ee2fca4831733c7167,13065,[],69,49.275207,-123.12501,CA,,"1250 Richards St, Vancouver BC V6B 3G2",Vancouver,V6B 3G2,BC,,Palladium Club,e9b37f2d9b7b2e2e3ade73f13acb69b2
29738769f1a343bdeb735ad4,13065,[],70,49.275181,-123.123791,CA,,"402 Davie St, Vancouver BC V6B 2G3",Vancouver,V6B 2G3,BC,,JJ House of Coffee,e9b37f2d9b7b2e2e3ade73f13acb69b2
b2abef57e7e7445493db453f,13065,[],85,49.276247,-123.12518,CA,,"572 Davie St, Vancouver BC V6B 2G4",Vancouver,V6B 2G4,BC,,Moonbeans Espresso Bar Moon Pennies Coffee Co Li mi,e9b37f2d9b7b2e2e3ade73f13acb69b2
9d768e3d9d8c47bf0716f255,13065,[],91,49.276448,-123.124873,CA,,"555 Davie St, Vancouver BC V6B 5B6",Vancouver,V6B 5B6,BC,,Vibes Lounge,e9b37f2d9b7b2e2e3ade73f13acb69b2
1c44dfc371f84aef6aedc294,13065,[],96,49.276288,-123.125346,CA,,"1206 Seymour St, Vancouver BC V6B 3N9",Vancouver,V6B 3N9,BC,,The Nuba Cafe,e9b37f2d9b7b2e2e3ade73f13acb69b2
0ee05e5d066348596f7b2990,13065,[],114,49.274945,-123.123284,CA,,"1210 Homer St, Vancouver BC V6B 2Y5",Vancouver,V6B 2Y5,BC,,Tre Galli Gelato Caffe,e9b37f2d9b7b2e2e3ade73f13acb69b2
616953860f124f79b0b3990c,13065,[],121,49.27496,-123.123123,CA,,"350 Davie St, Vancouver BC V6B 5Z6",Vancouver,V6B 5Z6,BC,,100 Days,e9b37f2d9b7b2e2e3ade73f13acb69b2
63c9bd10c3f04402bd637787,13065,[],133,49.276577,-123.125614,CA,,"616 Davie St, Vancouver BC V6B 2G5",Vancouver,V6B 2G5,BC,,Excellent Sushi Japanese Rest,e9b37f2d9b7b2e2e3ade73f13acb69b2
0f87b59ad88e45670b27f416,13065,[],133,49.276577,-123.125614,CA,,"612 Davie St, Vancouver BC V6B 2G5",Vancouver,V6B 2G5,BC,,Atlantic Trap & Gill,e9b37f2d9b7b2e2e3ade73f13acb69b2
81fb1faef99c40c9a8039901,13065,[],146,49.276582,-123.125857,CA,,"630 Davie St, Vancouver BC V6B 2G5",Vancouver,V6B 2G5,BC,,Happy Noodle House,e9b37f2d9b7b2e2e3ade73f13acb69b2
d350e1b08d81403911d30c79,13065,[],149,49.274425,-123.123645,CA,,"1257 Hamilton St, Vancouver BC V6B 6K3",Vancouver,V6B 6K3,BC,,Society,e9b37f2d9b7b2e2e3ade73f13acb69b2
ed091c3ceeff4f681280694d,13065,[],159,49.274296,-123.123797,CA,,"1261 Hamilton St, Vancouver BC V6B 6K3",Vancouver,V6B 6K3,BC,,Tasty Indian Bistro,e9b37f2d9b7b2e2e3ade73f13acb69b2
9825677151fb44421b92d4f1,13065,[],162,49.27426,-123.123875,CA,,"1257 Hamilton St, Vancouver BC V6B 6K3",Vancouver,V6B 6K3,BC,,Coast Restaurant,e9b37f2d9b7b2e2e3ade73f13acb69b2
b6ae18940eca47e7d783201c,13065,[],163,49.275825,-123.122143,CA,,"1138 Homer St, Vancouver BC V6B 2X6",Vancouver,V6B 2X6,BC,,Farrago Restaurant,e9b37f2d9b7b2e2e3ade73f13acb69b2
ba36b7d9ebae4e6a00fd98e8,13065,[],164,49.275598,-123.122123,CA,,"1138 Homer St, Vancouver BC",Vancouver,,BC,,Live Music Mondays at Brix Restaurant,e9b37f2d9b7b2e2e3ade73f13acb69b2
5ce14232914845534bd3da0e,13065,[],176,49.275557,-123.121957,CA,,"1141 Hamilton St, Vancouver BC V6B 5P6",Vancouver,V6B 5P6,BC,,Tavern Enterprises Ltd,e9b37f2d9b7b2e2e3ade73f13acb69b2
81defd7a7a2e421321efa408,13065,[],176,49.274214,-123.123465,CA,,"1257 Hamilton St, Vancouver BC",Vancouver,,BC,,Society by the GLOWBAL COLLECTION,e9b37f2d9b7b2e2e3ade73f13acb69b2
2a2558ffc310498bd02951c2,13065,[],187,49.275686,-123.121806,CA,,"1129/1 Hamilton St, Vancouver BC V6B 5P6",Vancouver,V6B 5P6,BC,,Enoteca,e9b37f2d9b7b2e2e3ade73f13acb69b2
e16ea2dffe11402ec5f4550d,13065,[],197,49.275382,-123.121699,CA,,"1132 Hamilton St, Vancouver BC V6B 2S2",Vancouver,V6B 2S2,BC,,Yaletown Brewing Co & Restaurant,e9b37f2d9b7b2e2e3ade73f13acb69b2
4aaec434f964a520346320e3,13065,[],46,49.282578,-123.125234,CA,Smithe St,"100A90 Burrard St (Smithe St), Vancouver BC V6Z 2N2",Vancouver,V6Z 2N2,BC,America/Vancouver,Le Crocodile Restaurant,32f70f7ae14ba87523c6286a6c4d5c37
4aa7ed88f964a5200b4e20e3,13065,[],42,49.282326,-123.123995,CA,at Smithe St,"888 Burrard St (at Smithe St), Vancouver BC V6Z 1X9",Vancouver,V6Z 1X9,BC,America/Vancouver,Salathai Thai Restaurant,32f70f7ae14ba87523c6286a6c4d5c37
4aa82e4bf964a520de4f20e3,13065,[],65,49.2821,-123.123976,CA,at Burrard St.,"970 Smithe St (at Burrard St.), Vancouver BC V6Z 0A4",Vancouver,V6Z 0A4,BC,America/Vancouver,Pacifico Pizzeria & Ristorante,32f70f7ae14ba87523c6286a6c4d5c37
53c32265498e7aa07942e9c1,13065,[],90,49.283021,-123.123893,CA,Robson Street,"845 Burrard St (Robson Street), Vancouver BC V6Z 2K6",Vancouver,V6Z 2K6,BC,America/Vancouver,Boulevard Kitchen & Oyster Bar,32f70f7ae14ba87523c6286a6c4d5c37
4aa74e0df964a520a64c20e3,13065,[],27,49.282197,-123.124147,CA,at Smithe St.,"899 Burrard St (at Smithe St.), Vancouver BC V6Z 1X9",Vancouver,V6Z 1X9,BC,America/Vancouver,Japa Dog,32f70f7ae14ba87523c6286a6c4d5c37
4d524496529dcbff4ab3e4c4,13065,[],140,49.282022,-123.122996,CA,btwn Robson & Smithe,"859 Hornby St (btwn Robson & Smithe), Vancouver BC V6Z 1T9",Vancouver,V6Z 1T9,BC,America/Vancouver,Hubbub Sandwiches,32f70f7ae14ba87523c6286a6c4d5c37
4aa17172f964a520904020e3,13065,[],95,49.282707,-123.123298,CA,,"820 Burrard St, Vancouver BC V6Z 1X9",Vancouver,V6Z 1X9,BC,America/Vancouver,JOEY Burrard,32f70f7ae14ba87523c6286a6c4d5c37
4b4be83af964a520fdaa26e3,13065,[],180,49.280725,-123.124913,CA,Nelson Street,"985 Hornby St (Nelson Street), Vancouver BC V6Z 1V3",Vancouver,V6Z 1V3,BC,America/Vancouver,Shizen Ya,32f70f7ae14ba87523c6286a6c4d5c37
4aaae466f964a520e45720e3,13065,[],174,49.282377,-123.122864,CA,btwn Smithe & Robson St,"845 Hornby St (btwn Smithe & Robson St), Vancouver BC V6Z 1V1",Vancouver,V6Z 1V1,BC,America/Vancouver,Bacchus Restaurant & Lounge,32f70f7ae14ba87523c6286a6c4d5c37
4aa805ccf964a520cd4e20e3,13065,[],192,49.284107,-123.125364,CA,btwn Robson & Haro,"838 Thurlow St (btwn Robson & Haro), Vancouver BC V6E 1W2",Vancouver,V6E 1W2,BC,America/Vancouver,Guu,32f70f7ae14ba87523c6286a6c4d5c37
4aa72e8ef964a520284c20e3,13065,[],131,49.281585,-123.123689,CA,at Smithe St.,"905 Hornby St (at Smithe St.), Vancouver BC V6Z 1V3",Vancouver,V6Z 1V3,BC,America/Vancouver,Earls,32f70f7ae14ba87523c6286a6c4d5c37
5d1d64f5e7e5fc00239f129d,13065,[],72,49.282321,-123.123752,CA,Smithe,"888 Burrard St (Smithe), Vancouver BC V6Z 1X9",Vancouver,V6Z 1X9,BC,America/Vancouver,Ballyhoo Public House,32f70f7ae14ba87523c6286a6c4d5c37
5a0cf72a3d479150f4bf65ba,13065,[],89,49.282414,-123.123678,CA,,"860 Burrard St, Vancouver BC V6Z 1X9",Vancouver,V6Z 1X9,BC,America/Vancouver,Italian Kitchen,32f70f7ae14ba87523c6286a6c4d5c37
5154ff1fe4b0859ca049d0c6,13065,[],82,49.281878,-123.124201,CA,,"990 Smithe St, Vancouver BC V6Z 0A4",Vancouver,V6Z 0A4,BC,America/Vancouver,Kamei Baru,32f70f7ae14ba87523c6286a6c4d5c37
623688d89f209c3b4a42a569,13065,[],90,49.281837,-123.124035,CA,,"990 Smithe St, Vancouver BC V6Z 0A4",Vancouver,V6Z 0A4,BC,America/Vancouver,Chef Hung Taiwanese Bistro 990,32f70f7ae14ba87523c6286a6c4d5c37
5cf2f6b2fb8e59002c11ca57,13065,[],115,49.282758,-123.123059,CA,,"810 Burrard St, Vancouver BC V6Z 1X9",Vancouver,V6Z 1X9,BC,America/Vancouver,Basil Box,32f70f7ae14ba87523c6286a6c4d5c37
61f061d4c27046306da74f80,13065,[],152,49.282245,-123.122634,CA,,"845 Hornby St, Vancouver BC V6Z 1V1",Vancouver,V6Z 1V1,BC,America/Vancouver,Bacchus Restaurant & Lounge,32f70f7ae14ba87523c6286a6c4d5c37
4bec9a750ddaa59307cd1dc3,13065,[],153,49.283325,-123.123107,CA,at Abbott St,"Water St (at Abbott St), Vancouver BC",Vancouver,,BC,America/Vancouver,Hot Dog Stand,32f70f7ae14ba87523c6286a6c4d5c37
4adbf332f964a520262b21e3,13065,"[{'id': 'd5719cc0-d890-0132-61d3-7a163eb2a6fc', 'name': 'Tim Hortons'}]",147,49.28124,-123.124308,CA,Btw Nelson & Smithe,"947 Hornby St (Btw Nelson & Smithe), Vancouver BC V6Z 1V3",Vancouver,V6Z 1V3,BC,America/Vancouver,Tim Hortons,32f70f7ae14ba87523c6286a6c4d5c37
6151128a106a9e0d20f96157,13065,[],198,49.280787,-123.125162,CA,Nelson St,"995 Hornby St (Nelson St), Vancouver BC V6Z 1V3",Vancouver,V6Z 1V3,BC,America/Vancouver,Pokey Okey,32f70f7ae14ba87523c6286a6c4d5c37
4ae7516bf964a5205caa21e3,13065,"[{'id': 'ab4bee40-d68a-012e-5619-003048cad9da', 'name': 'Subway'}]",192,49.284287,-123.124974,CA,at Robson St,"820 Thurlow St (at Robson St), Vancouver BC V6E 1W2",Vancouver,V6E 1W2,BC,America/Vancouver,Subway,32f70f7ae14ba87523c6286a6c4d5c37
249f044c4c4349f2f1aa3037,13065,[],57,49.282033,-123.124376,CA,,"900 Burrard St, Vancouver BC V6Z 3G5",Vancouver,V6Z 3G5,BC,,Lombardo's Pizzeria & Restaurant,32f70f7ae14ba87523c6286a6c4d5c37
668981d6b42843af91361b7b,13065,[],81,49.283021,-123.123893,CA,,"845 Burrard St, Vancouver BC V6Z 2K6",Vancouver,V6Z 2K6,BC,,Gerard Lounge,32f70f7ae14ba87523c6286a6c4d5c37
15d984d3eb85413d0491c60a,13065,[],85,49.281739,-123.124757,CA,,"900 Burrard St, Vancouver BC V6Z 3G5",Vancouver,V6Z 3G5,BC,,Panago Pizza,32f70f7ae14ba87523c6286a6c4d5c37
a54e86e6e5f140aa9d67b31a,13065,[],105,49.281564,-123.124498,CA,,"902 Granville St, Vancouver BC V6Z 1L2",Vancouver,V6Z 1L2,BC,,Aces Pizza Shop,32f70f7ae14ba87523c6286a6c4d5c37
1a70e7b87cdc45f2f62ec673,13065,"[{'id': 'ab4bee40-d68a-012e-5619-003048cad9da', 'name': 'Subway'}]",123,49.282815,-123.123064,CA,,"810 Burrard St, Vancouver BC V6Z 1X9",Vancouver,V6Z 1X9,BC,,Subway,32f70f7ae14ba87523c6286a6c4d5c37
9a811ef83f9441477a0f83ab,13065,[],133,49.282964,-123.122995,CA,,"818 Burrard St, Vancouver BC V6Z 1X9",Vancouver,V6Z 1X9,BC,,Death by Chocolate,32f70f7ae14ba87523c6286a6c4d5c37
e7596dd228944f15ac7ea896,13065,[],142,49.282094,-123.12284,CA,,"861 Hornby St, Vancouver BC V6Z 1T9",Vancouver,V6Z 1T9,BC,,Sandwich Tree,32f70f7ae14ba87523c6286a6c4d5c37
3ad01270c0ebce43734da5d5,13065,[],166,49.283937,-123.12535,CA,,"830 Thurlow St, Vancouver BC V6E 1W2",Vancouver,V6E 1W2,BC,,Hundy,32f70f7ae14ba87523c6286a6c4d5c37
d1684c01d04f574f9ffa3ce6,13065,[],166,49.283937,-123.12535,CA,,"830 Thurlow St, Vancouver BC V6E 1W2",Vancouver,V6E 1W2,BC,,Wings & Things,32f70f7ae14ba87523c6286a6c4d5c37
d9fcb06f8e060653c6ba7aef,13065,[],166,49.283937,-123.12535,CA,,"830 Thurlow St, Vancouver BC V6E 1W2",Vancouver,V6E 1W2,BC,,American Eclectic Burger,32f70f7ae14ba87523c6286a6c4d5c37
c4af7c510c27f098bce8875a,13065,[],166,49.283937,-123.12535,CA,,"830 Thurlow St, Vancouver BC V6E 1W2",Vancouver,V6E 1W2,BC,,Mia Pasta,32f70f7ae14ba87523c6286a6c4d5c37
f81ee6a475a4861088231c0a,13065,[],166,49.283937,-123.12535,CA,,"830 Thurlow St, Vancouver BC V6E 1W2",Vancouver,V6E 1W2,BC,,Another Wing by DJ Khaled,32f70f7ae14ba87523c6286a6c4d5c37
fd3b0d2840b1168b2588100a,13065,[],166,49.283937,-123.12535,CA,,"830 Thurlow St, Vancouver BC V6E 1W2",Vancouver,V6E 1W2,BC,,Crepe Delicious,32f70f7ae14ba87523c6286a6c4d5c37
c458f4b2abdd47ad02d43d1c,13065,[],181,49.283216,-123.122449,CA,,"1428 Vernon Dr, Vancouver BC V6A 0B9",Vancouver,V6A 0B9,BC,,Roaming Dragon,32f70f7ae14ba87523c6286a6c4d5c37
a3905d3303ec4662dc8a31c3,13065,[],187,49.280818,-123.12484,CA,,"985 Hornby St, Vancouver BC V6Z 1V3",Vancouver,V6Z 1V3,BC,,Lilu Burrito,32f70f7ae14ba87523c6286a6c4d5c37
4aa8712bf964a520505120e3,13065,[],196,49.282285,-123.134538,CA,btwn Jervis & Bute,"1262 Davie St (btwn Jervis & Bute), Vancouver BC V6E 1N3",Vancouver,V6E 1N3,BC,America/Vancouver,Score on Davie,df5ab349a7a85d4b10da4cc3ec65c607
5d351533c9759600073a93dc,13065,[],79,49.283027,-123.135737,CA,,"1326 Davie St, Vancouver BC V6E 1N6",Vancouver,V6E 1N6,BC,America/Vancouver,Kinara Indian Cuisine,df5ab349a7a85d4b10da4cc3ec65c607
c5f1af448fd348306e57ee76,13065,[],199,49.282321,-123.134459,CA,,"1262 Davie St, Vancouver BC V6E 1N3",Vancouver,V6E 1N3,BC,,Grasshopper,df5ab349a7a85d4b10da4cc3ec65c607
4b282e0af964a520589024e3,13065,[],177,49.263527,-123.150045,CA,W Broadway,"2502 Maple St (W Broadway), Vancouver BC V6J 0B4",Vancouver,V6J 0B4,BC,America/Vancouver,Blenz Coffee,e0318460138ffbf4692005d5b5a9f900
4b674724f964a5206c452be3,13065,[],105,49.263923,-123.148295,CA,at Cypress Street,"1905W Broadway W (at Cypress Street), Vancouver BC V6J 1Z3",Vancouver,V6J 1Z3,BC,America/Vancouver,Akbar's Own Dining Lounge,e0318460138ffbf4692005d5b5a9f900
6158d22adfe7f9220b163a51,13065,[],75,49.263573,-123.147778,CA,Cypress St,"1888 Broadway W (Cypress St), Vancouver BC V6J 1Y9",Vancouver,V6J 1Y9,BC,America/Vancouver,Le Coq Frit,e0318460138ffbf4692005d5b5a9f900
5b972c8c27cbd10025a0a531,13065,[],144,49.263527,-123.146477,CA,Burrard,"1822 Broadway W (Burrard), Vancouver BC V6J 1Y9",Vancouver,V6J 1Y9,BC,America/Vancouver,Viet Flavour Restaurant,e0318460138ffbf4692005d5b5a9f900
4da64682a86ecc5168cc7385,13065,[],128,49.26398,-123.149192,CA,Cypress St.,"1941 West Broadway (Cypress St.), Vancouver BC V6J 1Z3",Vancouver,V6J 1Z3,BC,America/Vancouver,Manchester Public House Inc,e0318460138ffbf4692005d5b5a9f900
1c74539e417d44e256911174,13065,[],128,49.263445,-123.149713,CA,,"1978 West Broadway, Vancouver BC V6J 1Z2",Vancouver,V6J 1Z2,BC,,Revel Juice,e0318460138ffbf4692005d5b5a9f900
c0dc1c3714f54aa2d031b728,13065,[],196,49.264083,-123.146038,CA,,"2445 Burrard St, Vancouver BC V6J 3J3",Vancouver,V6J 3J3,BC,,Ding & Ling Restaurant Ltd,e0318460138ffbf4692005d5b5a9f900
4aa74c7bf964a520a34c20e3,13065,[],55,49.270647,-123.135651,CA,at Old Bridge St,"1441 Cartwright St (at Old Bridge St), Vancouver BC V6H 3R7",Vancouver,V6H 3R7,BC,America/Vancouver,Granville Island Brewing,db51c556fe50ec1deefbc9697c70cb51
55e4c9f1498ef3f9eda26716,13065,[],68,49.270292,-123.133999,CA,,"1363 Railspur Alley, Vancouver BC V6H 4G9",Vancouver,V6H 4G9,BC,America/Vancouver,Off the Tracks Bistro,db51c556fe50ec1deefbc9697c70cb51
4aab1b6bf964a520f45820e3,13065,[],111,49.271157,-123.135695,CA,,"1499 Anderson St, Vancouver BC V6H 3R5",Vancouver,V6H 3R5,BC,America/Vancouver,The Keg Steakhouse & Bar,db51c556fe50ec1deefbc9697c70cb51
4b521513f964a520746627e3,13065,[],108,49.270699,-123.136304,CA,at Granville Island,"1511 Anderson St (at Granville Island), Vancouver BC V6H 3R5",Vancouver,V6H 3R5,BC,America/Vancouver,Tony's Fish & Oyster Cafe,db51c556fe50ec1deefbc9697c70cb51
590e3288ea1e4476bf8dd9a7,13065,[],175,49.271908,-123.135597,CA,,"1689 Johnston St, Vancouver BC V6H 3R9",Vancouver,V6H 3R9,BC,America/Vancouver,Sen Pad Thai,db51c556fe50ec1deefbc9697c70cb51
54287f5f498e51a58d74bfae,13065,[],114,49.270626,-123.13646,CA,,"1517 Anderson St, Vancouver BC V6H 3R5",Vancouver,V6H 3R5,BC,America/Vancouver,The Vancouver Fish Co,db51c556fe50ec1deefbc9697c70cb51
60f24039d8b0f9012e485031,13065,[],167,49.27179,-123.135343,CA,,"1596 Johnston St, Vancouver BC V6H 3S2",Vancouver,V6H 3S2,BC,America/Vancouver,Alimentaria Mexicana Ltd,db51c556fe50ec1deefbc9697c70cb51
4fd93e6ee4b00800dcfdd8d8,13065,[],173,49.271687,-123.134929,CA,,"1596 Johnston St, Vancouver BC V6H 3S2",Vancouver,V6H 3S2,BC,America/Vancouver,Coast to Coast,db51c556fe50ec1deefbc9697c70cb51
fba2f5052db64d35bcbb4ca8,13065,[],74,49.270292,-123.133999,CA,,"1363 Railspur Alley, Vancouver BC",Vancouver,,BC,,Agro Cafe Coffee & Roasting House,db51c556fe50ec1deefbc9697c70cb51
3c3b17dc222d4c00e9d81ed5,13065,[],117,49.270498,-123.136612,CA,,"1517 Anderson St, Vancouver BC V6H 3R5",Vancouver,V6H 3R5,BC,,Whet Granville Island,db51c556fe50ec1deefbc9697c70cb51
e051599e2aa745733b5a59f2,13065,[],168,49.270472,-123.132716,CA,,"1691 Johnston St, Vancouver BC V6H 3R9",Vancouver,V6H 3R9,BC,,Popina Canteen,db51c556fe50ec1deefbc9697c70cb51
7d2b56bfeaf445acc361662e,13065,[],197,49.272063,-123.13488,CA,,"1551 Johnston St, Vancouver BC V6H 3R9",Vancouver,V6H 3R9,BC,,Edible Canada Culinary Experiences Corp,db51c556fe50ec1deefbc9697c70cb51
59449f7a747ecd08014edd01,13065,[],109,49.27967,-123.074767,CA,at McLean Dr,"1485 Frances St (at McLean Dr), Vancouver BC V5L 1Z1",Vancouver,V5L 1Z1,BC,America/Vancouver,Earnest Ice Cream,58a026f0c506caec20697a4f90538450
4d8bcaf36eb360fcd405161e,13065,[],99,49.281472,-123.074432,CA,btw Clark & Commercial,"1489 Hastings St E (btw Clark & Commercial), Vancouver BC V5L 1S4",Vancouver,V5L 1S4,BC,America/Vancouver,Brunch Mexicana at the Waldorf,58a026f0c506caec20697a4f90538450
538372de498e7bf4144da51e,13065,[],106,49.281472,-123.074432,CA,btwn Commercial and Clark,"1489 Hastings St E (btwn Commercial and Clark), Vancouver BC V5L 1S4",Vancouver,V5L 1S4,BC,America/Vancouver,Nonna's Table,58a026f0c506caec20697a4f90538450
4cc8c6de46b43704306a44e1,13065,[],108,49.281508,-123.074354,CA,btwn Commercial & Clark,"1489 Hastings St E (btwn Commercial & Clark), Vancouver BC V5L 1S4",Vancouver,V5L 1S4,BC,America/Vancouver,The Leeteg Room at the Waldorf,58a026f0c506caec20697a4f90538450
58177df3cd854a3f3d8ab9dc,13065,[],106,49.281142,-123.073106,CA,,"1298 Hastings St E, Vancouver BC V6A 1S6",Vancouver,V6A 1S6,BC,,Wet Coast Foods,58a026f0c506caec20697a4f90538450
a5fe7809a2b944d636b14a51,13065,[],181,49.28043,-123.071585,CA,,"1647 Pender St E, Vancouver BC V5L 1W2",Vancouver,V5L 1W2,BC,,Jang Mo Jib Korean Restaurant,58a026f0c506caec20697a4f90538450
51a7a349454a2b1f0e2449f8,13065,[],92,49.278455,-123.11823,CA,at Smithe St.,"898 Homer St (at Smithe St.), Vancouver BC V6B 2W5",Vancouver,V6B 2W5,BC,America/Vancouver,Homer St. Cafe and Bar,0e0aef6fabaa808b3a3cef24657257a4
591782f22bf9a936de28c8d1,13065,[],138,49.280385,-123.118638,CA,at Seymour St,"560 Robson St (at Seymour St), Vancouver BC V6B 2B7",Vancouver,V6B 2B7,BC,America/Vancouver,Paramount Fine Foods,0e0aef6fabaa808b3a3cef24657257a4
4b5fa47ff964a52000c629e3,13065,[],129,49.280189,-123.118297,CA,btwn Seymour & Richards St.,"530 Robson St (btwn Seymour & Richards St.), Vancouver BC V6B 2B7",Vancouver,V6B 2B7,BC,America/Vancouver,Japadog,0e0aef6fabaa808b3a3cef24657257a4
5081a68ae4b09e409ba309f5,13065,[],148,49.280503,-123.118891,CA,,"2FA590 Robson St, Vancouver BC V6B 2B7",Vancouver,V6B 2B7,BC,America/Vancouver,ZAC ZAC Japanese Curry House,0e0aef6fabaa808b3a3cef24657257a4
4b6d04bcf964a52041632ce3,13065,[],178,49.278151,-123.117231,CA,btwn Smithe & Robson,"869 Hamilton St (btwn Smithe & Robson), Vancouver BC V6B 2R7",Vancouver,V6B 2R7,BC,America/Vancouver,Lupo Restaurant & Vinoteca,0e0aef6fabaa808b3a3cef24657257a4
4aa7f6f2f964a520464e20e3,13065,[],103,49.2795,-123.120428,CA,at Smithe St.,"900 Seymour St (at Smithe St.), Vancouver BC V6B 3L9",Vancouver,V6B 3L9,BC,America/Vancouver,Uva Wine Bar,0e0aef6fabaa808b3a3cef24657257a4
58fa60c8a35dce24a1fc26cb,13065,[],146,49.280313,-123.117902,CA,at Richards St,"541 Robson St (at Richards St), Vancouver BC V6B 1A6",Vancouver,V6B 1A6,BC,America/Vancouver,JINYA Ramen Bar - Vancouver,0e0aef6fabaa808b3a3cef24657257a4
5a0fd58f1b0ea50e677fd1a2,13065,[],191,49.280066,-123.121369,CA,,"900 Granville St, Vancouver BC V6Z 1L2",Vancouver,V6Z 1L2,BC,America/Vancouver,Dublin Calling,0e0aef6fabaa808b3a3cef24657257a4
56a8fbd6498e80ba3f11b798,13065,[],96,49.27863,-123.118488,CA,Homer and Smithe,"891 Homer St (Homer and Smithe), Vancouver BC V6B 2W2",Vancouver,V6B 2W2,BC,America/Vancouver,Per Se Social Corner,0e0aef6fabaa808b3a3cef24657257a4
4b182f85f964a52085ce23e3,13065,[],95,49.279423,-123.120341,CA,Seymour,"560 Smithe St (Seymour), Vancouver BC V6B 0A8",Vancouver,V6B 0A8,BC,America/Vancouver,Localcoin Bitcoin ATM - Red Card Sports Bar + Eatery,0e0aef6fabaa808b3a3cef24657257a4
4ad3f11ff964a52000e720e3,13065,[],130,49.280267,-123.118385,CA,Btw Seymour & Richards,"520 Robson St (Btw Seymour & Richards), Vancouver BC V6B 2B7",Vancouver,V6B 2B7,BC,America/Vancouver,Viet Sub,0e0aef6fabaa808b3a3cef24657257a4
4d9e756b9b91a1cdd13657c0,13065,[],166,49.28019,-123.120974,CA,at Granville St.,"675 Smithe St (at Granville St.), Vancouver BC V6B 2C9",Vancouver,V6B 2C9,BC,America/Vancouver,Pizza Garden,0e0aef6fabaa808b3a3cef24657257a4
552583c6498e2ca34e9012b4,13065,[],192,49.279139,-123.116747,CA,btwn Homer & Hamilton,"350 Robson St (btwn Homer & Hamilton), Vancouver BC V6B 2B2",Vancouver,V6B 2B2,BC,America/Vancouver,Straight Outta Brooklyn NYC Pizzeria,0e0aef6fabaa808b3a3cef24657257a4
4aa80138f964a520a64e20e3,13065,[],107,49.279464,-123.120506,CA,at Smithe St,"900 Seymour St (at Smithe St), Vancouver BC V6B 3L9",Vancouver,V6B 3L9,BC,America/Vancouver,Cibo Trattoria,0e0aef6fabaa808b3a3cef24657257a4
4fe504f0e4b00cda589425c7,13065,[],146,49.279546,-123.117268,CA,btwn Homer and Richards,"430 Robson St (btwn Homer and Richards), Vancouver BC V6B 0H3",Vancouver,V6B 0H3,BC,America/Vancouver,Memphis Blues Barbeque House,0e0aef6fabaa808b3a3cef24657257a4
519552df498efd594ec9a0a5,13065,[],132,49.280267,-123.118385,CA,,"542 Robson St, Vancouver BC V6B 2B7",Vancouver,V6B 2B7,BC,America/Vancouver,Curry Fusion,0e0aef6fabaa808b3a3cef24657257a4
57cf2e7f498eef8d7dedcbd5,13065,[],168,49.279216,-123.116835,CA,btwn Homer & Hamilton,"386 Robson St (btwn Homer & Hamilton), Vancouver BC V6B 2B2",Vancouver,V6B 2B2,BC,America/Vancouver,Gong Cha,0e0aef6fabaa808b3a3cef24657257a4
4ab7f051f964a520827b20e3,13065,[],169,49.279293,-123.116922,CA,at Homer St.,"388 Robson St (at Homer St.), Vancouver BC V6B 2B2",Vancouver,V6B 2B2,BC,America/Vancouver,Ebi-Ten,0e0aef6fabaa808b3a3cef24657257a4
4b27ee1bf964a5207c8c24e3,13065,"[{'id': 'd5719cc0-d890-0132-61d3-7a163eb2a6fc', 'name': 'Tim Hortons'}]",155,49.279999,-123.117307,CA,Btw Richards & Homer,"463 Robson St (Btw Richards & Homer), Vancouver BC V6B 6L9",Vancouver,V6B 6L9,BC,America/Vancouver,Tim Hortons,0e0aef6fabaa808b3a3cef24657257a4
5009bb6be4b0ba42c1659ddc,13065,[],184,49.278614,-123.116864,CA,btwn Robson & Homer,"847 Hamilton St (btwn Robson & Homer), Vancouver BC V6B 2R7",Vancouver,V6B 2R7,BC,America/Vancouver,Patisserie Für Elise,0e0aef6fabaa808b3a3cef24657257a4
4b4149f7f964a520bdc425e3,13065,[],128,49.280267,-123.118385,CA,btwn Richards & Seymour,"548 Robson St (btwn Richards & Seymour), Vancouver BC V6B 2B7",Vancouver,V6B 2B7,BC,America/Vancouver,Beard Papa's,0e0aef6fabaa808b3a3cef24657257a4
4c4f1980960e76b0a2212be7,13065,[],175,49.280812,-123.119242,CA,btwn Granville & Seymour,"615 Robson St (btwn Granville & Seymour), Vancouver BC V6B 5J3",Vancouver,V6B 5J3,BC,America/Vancouver,Aladdin's Cafe,0e0aef6fabaa808b3a3cef24657257a4
5fa4d37ab9755669c26524ea,13065,[],103,49.27845,-123.118878,CA,Smythe,"901 Homer St (Smythe), Vancouver BC V6B 2W6",Vancouver,V6B 2W6,BC,America/Vancouver,Tutto Restaurant & Bar,0e0aef6fabaa808b3a3cef24657257a4
5c71cc08febf31002ca1178a,13065,[],121,49.280169,-123.118214,CA,Robson St and Richards St,"500 Robson St (Robson St and Richards St), Vancouver BC V6B 2B7",Vancouver,V6B 2B7,BC,America/Vancouver,Bentoya,0e0aef6fabaa808b3a3cef24657257a4
54aef2a3498eb5e74ac7814e,13065,[],129,49.279221,-123.117079,CA,btwn Robson & Smithe,"812 Homer St (btwn Robson & Smithe), Vancouver BC V6B 2W5",Vancouver,V6B 2W5,BC,America/Vancouver,Mediterranean Greens Salad Bar,0e0aef6fabaa808b3a3cef24657257a4
4e4593fed164155c0dd9a021,13065,[],143,49.280539,-123.118813,CA,,"590 Robson St, Vancouver BC V6B 2B7",Vancouver,V6B 2B7,BC,America/Vancouver,E-Mo Restaurant,0e0aef6fabaa808b3a3cef24657257a4
632e71f5738d032eea3dc570,13065,[],179,49.279139,-123.116747,CA,Homer St.,"382 Robson St (Homer St.), Vancouver BC V6B 2B2",Vancouver,V6B 2B2,BC,America/Vancouver,Pelicana Chicken,0e0aef6fabaa808b3a3cef24657257a4
4c0ff6fdb93cc9b6e6fe55e0,13065,[],185,49.279139,-123.116747,CA,Homer St,"350 Robson St (Homer St), Vancouver BC V6B 2B2",Vancouver,V6B 2B2,BC,America/Vancouver,Amore Pizza,0e0aef6fabaa808b3a3cef24657257a4
3374a4b7d2fc4b074af6c240,13065,[],116,49.280112,-123.118209,CA,,"516 Robson St, Vancouver BC V6B 2B7",Vancouver,V6B 2B7,BC,,Falafel House,0e0aef6fabaa808b3a3cef24657257a4
ca4f9add8be54fedada8d4b9,13065,[],120,49.280189,-123.118297,CA,,"516 Robson St, Vancouver BC V6B 2B7",Vancouver,V6B 2B7,BC,,Falafel King,0e0aef6fabaa808b3a3cef24657257a4
e4450302b5f246d54c106e73,13065,[],129,49.279587,-123.117434,CA,,"438 Robson St, Vancouver BC V6B 0H3",Vancouver,V6B 0H3,BC,,Orange Julius,0e0aef6fabaa808b3a3cef24657257a4
9680494de4704d9c0ce8212f,13065,[],168,49.280761,-123.119481,CA,,"809 Seymour St, Vancouver BC V6B 3L4",Vancouver,V6B 3L4,BC,,Krungthep Thai Cuisine,0e0aef6fabaa808b3a3cef24657257a4
4a8867c04271466b458c0b88,13065,[],193,49.280746,-123.120535,CA,,"898 Granville St, Vancouver BC V6Z 1K3",Vancouver,V6Z 1K3,BC,,Megabite Pizza,0e0aef6fabaa808b3a3cef24657257a4
dc7c2d6768f34130f304301b,13065,[],195,49.277523,-123.119611,CA,,"990 Homer St, Vancouver BC V6B 2W7",Vancouver,V6B 2W7,BC,,Lupo Restaurant Yaletown,0e0aef6fabaa808b3a3cef24657257a4
4aa9d7c3f964a520695520e3,13065,[],178,49.272757,-123.187895,CA,Highbury st.,"3811 Pt Grey Rd (Highbury st.), Vancouver BC V6R 1B3",Vancouver,V6R 1B3,BC,America/Vancouver,Royal Vancouver Yacht Club,899f59a9994302e8e1e4be01117ef707
4daf39111e7264cc0e30d18f,13065,[],94,49.263706,-123.156791,CA,btwn Vine & Yew,"2280 West Broadway (btwn Vine & Yew), Vancouver BC V6K 2E3",Vancouver,V6K 2E3,BC,America/Vancouver,Edible Flours,2681455ba2d97283998a806b14d3e95c
4aba8d7ef964a520d68120e3,13065,[],182,49.264154,-123.157478,CA,W Broadway,"2480 Vine St (W Broadway), Vancouver BC V6K 3K8",Vancouver,V6K 3K8,BC,America/Vancouver,Heart Attack & Vine,2681455ba2d97283998a806b14d3e95c
4ace95e0f964a52051d120e3,13065,[],77,49.263712,-123.154359,CA,btwn Yew & Arbutus,"2156 Broadway W (btwn Yew & Arbutus), Vancouver BC V6K 2C8",Vancouver,V6K 2C8,BC,America/Vancouver,Temaki Sushi,2681455ba2d97283998a806b14d3e95c
59711b4f6fa81f7095c7fb66,13065,[],140,49.263542,-123.153452,CA,Arbutus,"2120 Broadway W (Arbutus), Vancouver BC V6K 2C8",Vancouver,V6K 2C8,BC,America/Vancouver,Gyo Para Gyoza & Ramen Bar,2681455ba2d97283998a806b14d3e95c
5633e914498ea3a0b61e4567,13065,[],175,49.263747,-123.157848,CA,Vine,"2300 Broadway W (Vine), Vancouver BC V6K 2E5",Vancouver,V6K 2E5,BC,America/Vancouver,Platform 7 Coffee,2681455ba2d97283998a806b14d3e95c
4bd753c80b779c741ae904a0,13065,[],166,49.263094,-123.152765,CA,at W 10th Ave.,"2576 Arbutus St (at W 10th Ave.), Vancouver BC V6J 3Y2",Vancouver,V6J 3Y2,BC,America/Vancouver,Napoletana Pizza,2681455ba2d97283998a806b14d3e95c
50fdf001e4b04cff0384ba89,13065,[],171,49.262332,-123.153267,CA,at West 10th,"2655 Arbutus St (at West 10th), Vancouver BC V6J 3Y4",Vancouver,V6J 3Y4,BC,America/Vancouver,Trees Organic Coffee,2681455ba2d97283998a806b14d3e95c
4aabffd5f964a520805b20e3,13065,[],125,49.264087,-123.156986,CA,Vine St,"2283W Broadway W (Vine St), Vancouver BC V6K 2E4",Vancouver,V6K 2E4,BC,America/Vancouver,Regal Beagle,2681455ba2d97283998a806b14d3e95c
551074d8498ed654c625740e,13065,[],42,49.263701,-123.154763,CA,at Yew St,"2180 Broadway W (at Yew St), Vancouver BC V6K 2C8",Vancouver,V6K 2C8,BC,America/Vancouver,Yagoto Sushi Dining,2681455ba2d97283998a806b14d3e95c
4c8c0b54ed3ab60c54296421,13065,[],52,49.263681,-123.15468,CA,btwn Yew & Arbutus,"2176W Broadway W (btwn Yew & Arbutus), Vancouver BC V6K 2C8",Vancouver,V6K 2C8,BC,America/Vancouver,Evelyn's Coffee Shop,2681455ba2d97283998a806b14d3e95c
5d7ed6be1361e20008711402,13065,[],128,49.263635,-123.153379,CA,,"2126 West Broadway, Vancouver BC V6K 2C8",Vancouver,V6K 2C8,BC,America/Vancouver,Z&W Shanghai Kitchen,2681455ba2d97283998a806b14d3e95c
5eb2d97d75c97d0008223aa3,13065,[],134,49.264092,-123.157229,CA,Vine,"2287 Broadway W (Vine), Vancouver BC V6K 2E4",Vancouver,V6K 2E4,BC,America/Vancouver,Mimi's Burgers,2681455ba2d97283998a806b14d3e95c
5fc2c7b3762143660f0e4c92,13065,[],177,49.264149,-123.157234,CA,Broadway,"2480 Vine St (Broadway), Vancouver BC V6K 3K8",Vancouver,V6K 3K8,BC,America/Vancouver,Casereccio Foods,2681455ba2d97283998a806b14d3e95c
299fc630fa624618dc21a544,13065,[],139,49.264087,-123.156986,CA,,"2281 Broadway W, Vancouver BC V6K 2E4",Vancouver,V6K 2E4,BC,,The Reagle Beagle,2681455ba2d97283998a806b14d3e95c
47ad89e345a043b444686fba,13065,[],142,49.264144,-123.15699,CA,,"2287 Broadway W, Vancouver BC V6K 2E4",Vancouver,V6K 2E4,BC,,Mimi's Burgers,2681455ba2d97283998a806b14d3e95c
bf62802fe4ec69d073a83ccb,13065,[],194,49.262296,-123.153345,CA,,"2685 Arbutus St, Vancouver BC V6J 3Y4",Vancouver,V6J 3Y4,BC,,Coquette,2681455ba2d97283998a806b14d3e95c
4ad25114f964a520e0e020e3,13065,[],22,49.263783,-123.069526,CA,at Grandview Hwy,"2360 Commercial Dr (at Grandview Hwy), Vancouver BC V5N 4B7",Vancouver,V5N 4B7,BC,America/Vancouver,St. Augustine's,c64ee19c62a363019ddbaedf71df2882
5463d301498eda544d08023c,13065,[],75,49.264442,-123.069501,CA,at E 7th Ave,"2280 Commercial Dr at E 7th Ave (at E 7th Ave), Vancouver BC V5N 4B5",Vancouver,V5N 4B5,BC,America/Vancouver,Jamjar,c64ee19c62a363019ddbaedf71df2882
4aa9623af964a520655320e3,13065,[],141,49.264932,-123.069461,CA,at E 6th Ave,"2206 Commercial Dr (at E 6th Ave), Vancouver BC V5N 4B5",Vancouver,V5N 4B5,BC,America/Vancouver,Jj Bean House of Coffee,c64ee19c62a363019ddbaedf71df2882
4b3d18b6f964a520d58d25e3,13065,"[{'id': '47e6f193-dc6a-475f-a49b-ffacf449fa12', 'name': 'Booster Juice'}]",100,49.262898,-123.069532,CA,E. Broadway,"2430 Commercial Dr (E. Broadway), Vancouver BC V5N 4B9",Vancouver,V5N 4B9,BC,America/Vancouver,Booster Juice,c64ee19c62a363019ddbaedf71df2882
4aa7407df964a5207a4c20e3,13065,[],162,49.262476,-123.070064,CA,Commercial Dr,"1685 Broadway E (Commercial Dr), Vancouver BC V5N 1V9",Vancouver,V5N 1V9,BC,America/Vancouver,Uncle Fatih's Pizza,c64ee19c62a363019ddbaedf71df2882
4aa8138ef964a520224f20e3,13065,[],136,49.262671,-123.069513,CA,at E. Broadway,"2440 Commercial Dr (at E. Broadway), Vancouver BC V5N 4B9",Vancouver,V5N 4B9,BC,America/Vancouver,Megabite Pizza,c64ee19c62a363019ddbaedf71df2882
5bbfa5c7180b91002c8d60c2,13065,[],55,49.264489,-123.06991,CA,,"2247 Commercial Dr, Vancouver BC V5N 4B6",Vancouver,V5N 4B6,BC,America/Vancouver,Poke Five,c64ee19c62a363019ddbaedf71df2882
5cf876cc06fb60002c7eee3f,13065,[],72,49.26435,-123.069574,CA,,"2280 Commercial Dr, Vancouver BC V5N 4B5",Vancouver,V5N 4B5,BC,America/Vancouver,Loku Japanese Cuisine,c64ee19c62a363019ddbaedf71df2882
55e3a0e5498e34b618dbbc06,13065,[],72,49.26435,-123.069574,CA,,"2280 Commercial Dr, Vancouver BC V5N 4B5",Vancouver,V5N 4B5,BC,America/Vancouver,Jarn,c64ee19c62a363019ddbaedf71df2882
62917c036b6d632d4bb28d15,13065,[],73,49.264494,-123.070154,CA,,"2247 Commercial Dr, Vancouver BC V5N 4B6",Vancouver,V5N 4B6,BC,America/Vancouver,Juno Provisions,c64ee19c62a363019ddbaedf71df2882
5fb9ab8559421923cb9c3877,13065,[],73,49.264463,-123.069584,CA,,"2260 Commercial Dr, Vancouver BC V5N 4B5",Vancouver,V5N 4B5,BC,America/Vancouver,B House,c64ee19c62a363019ddbaedf71df2882
60fe34ae1d6ca60356a40496,13065,[],124,49.262671,-123.069513,CA,,"2450 Commercial Dr, Vancouver BC V5N 4B9",Vancouver,V5N 4B9,BC,America/Vancouver,Donair Dude,c64ee19c62a363019ddbaedf71df2882
6140f96a4e1b0b7f20907ec1,13065,[],149,49.2626,-123.070562,CA,,"1661 Broadway E, Vancouver BC V5N 1V9",Vancouver,V5N 1V9,BC,America/Vancouver,Hon’s Wonton House,c64ee19c62a363019ddbaedf71df2882
4abab1bff964a5207d8220e3,13065,"[{'id': '16cd7840-992b-0132-fd75-7a163eb2a6fc', 'name': 'A&W Restaurant'}]",135,49.262614,-123.069508,CA,,"1715 Broadway E, Vancouver BC V5N 1W2",Vancouver,V5N 1W2,BC,America/Vancouver,A&W Restaurant,c64ee19c62a363019ddbaedf71df2882
4ab18f17f964a520f86920e3,13065,[],137,49.262614,-123.069508,CA,at E Broadway,"2470 Commercial Dr (at E Broadway), Vancouver BC V5N 4B9",Vancouver,V5N 4B9,BC,America/Vancouver,Blenz Coffee,c64ee19c62a363019ddbaedf71df2882
146a29f1511a46434ec0c30c,13065,[],44,49.264134,-123.070043,CA,,"2285 Commercial Dr, Vancouver BC V5N 4B6",Vancouver,V5N 4B6,BC,,Mr Greek Donair Store,c64ee19c62a363019ddbaedf71df2882
3c3f2681eb9247d9289eaca4,13065,[],122,49.262671,-123.069513,CA,,"2450 Commercial Dr, Vancouver BC V5N 4B9",Vancouver,V5N 4B9,BC,,Buddha's,c64ee19c62a363019ddbaedf71df2882
84f8512784684a00adf68c15,13065,[],129,49.264906,-123.070027,CA,,"2205 Commercial Dr, Vancouver BC V5N 4B6",Vancouver,V5N 4B6,BC,,Scribes Rugby Club,c64ee19c62a363019ddbaedf71df2882
a60873434c704eb98bc9c8e0,13065,[],183,49.262146,-123.070523,CA,,"1660 Broadway E, Vancouver BC V5N 1W1",Vancouver,V5N 1W1,BC,,Rio on Broadway,c64ee19c62a363019ddbaedf71df2882
4aa7dd26f964a520af4d20e3,13065,[],179,49.257234,-123.126963,CA,at 16th Ave.,"3192 Oak St (at 16th Ave.), Vancouver BC V6H 2L1",Vancouver,V6H 2L1,BC,America/Vancouver,De Dutch Pannekoek House,421516af381a11f54d07fc79be68d3d3
5c3b9208646e38002cdb1141,13065,[],90,49.258033,-123.127274,CA,,"3093 Oak St, Vancouver BC V6H 2K8",Vancouver,V6H 2K8,BC,America/Vancouver,Joon's Kitchen,421516af381a11f54d07fc79be68d3d3
4aa9ef68f964a520875520e3,13065,[],141,49.257518,-123.126987,CA,16th St W,"3150 Oak St (16th St W), Vancouver BC V6H 2L1",Vancouver,V6H 2L1,BC,America/Vancouver,Zaccary's Pizza,421516af381a11f54d07fc79be68d3d3
4afde409f964a520cf2b22e3,13065,[],113,49.264143,-123.163234,CA,btwn Trafalgar & Larch,"2539 Broadway W (btwn Trafalgar & Larch), Vancouver BC V6K 2E9",Vancouver,V6K 2E9,BC,America/Vancouver,Thomas Haas Patisserie,abfaf72456a4828a22f5bf60d3a80777
4ae9e104f964a5203eb721e3,13065,[],65,49.264132,-123.165422,CA,btwn Stephens & Trafalgar,"2649W Broadway W (btwn Stephens & Trafalgar), Vancouver BC V6K 2G2",Vancouver,V6K 2G2,BC,America/Vancouver,Sunshine Diner,abfaf72456a4828a22f5bf60d3a80777
4aa9a9c7f964a520bf5420e3,13065,[],97,49.26388,-123.165968,CA,btw Stephens & Trafalgar,"2684 Broadway W (btw Stephens & Trafalgar), Vancouver BC V6K 2G3",Vancouver,V6K 2G3,BC,America/Vancouver,Nat's New York Pizzaria,abfaf72456a4828a22f5bf60d3a80777
56cb6b90cd100f3627d2a06a,13065,[],89,49.263916,-123.16589,CA,,"2680 Broadway W, Vancouver BC V6K 2G3",Vancouver,V6K 2G3,BC,America/Vancouver,Mr. Red Cafe,abfaf72456a4828a22f5bf60d3a80777
4b3c1fdcf964a5200b8225e3,13065,[],113,49.263844,-123.163371,CA,,"2518 Broadway W, Vancouver BC V6K 2G1",Vancouver,V6K 2G1,BC,America/Vancouver,White Spot Kitsilano,abfaf72456a4828a22f5bf60d3a80777
5b92ba99c9a517002cd11e9e,13065,[],37,49.264277,-123.164219,CA,,"2585 Broadway W, Vancouver BC V6K 2E9",Vancouver,V6K 2E9,BC,America/Vancouver,Super Hiro's,abfaf72456a4828a22f5bf60d3a80777
5b7a03949d74680039aa49eb,13065,[],116,49.264204,-123.166158,CA,Stephens,"W 4th ave (Stephens), Vancouver BC V6K 2G2",Vancouver,V6K 2G2,BC,America/Vancouver,Ah Long Sushi,abfaf72456a4828a22f5bf60d3a80777
4abee249f964a5206a9020e3,13065,[],79,49.268705,-123.178708,CA,btwn Waterloo & Blenheim,"3347 4th Ave W (btwn Waterloo & Blenheim), Vancouver BC V6R 1N6",Vancouver,V6R 1N6,BC,America/Vancouver,Hitoe Sushi,671ce9e4a92063620f772d2c57f0f3ab
4ac38331f964a520979b20e3,13065,[],26,49.268669,-123.177894,CA,,"3301 4th Ave W, Vancouver BC V6R 1N6",Vancouver,V6R 1N6,BC,America/Vancouver,Corner Cup Coffee House,671ce9e4a92063620f772d2c57f0f3ab
5d29827cf5c8330023780aff,13065,[],35,49.268731,-123.177251,CA,,"3293 4th Ave W, Vancouver BC V6K 1R8",Vancouver,V6K 1R8,BC,America/Vancouver,Castaway Bar and Kitchen,671ce9e4a92063620f772d2c57f0f3ab
4d810b99e6d7721e1bb523c7,13065,[],154,49.253968,-123.101139,CA,btwn E 18th & 19th,"3475 Main St (btwn E 18th & 19th), Vancouver BC V5V 3M9",Vancouver,V5V 3M9,BC,America/Vancouver,Slickity Jim's Chat & Chew,89a0b49a66e54a7639ad960962148a3e
4c4349583735be9a3e381ba4,13065,[],104,49.251707,-123.10119,CA,21st Ave,"3707 Main St (21st Ave), Vancouver BC V5V 3N8",Vancouver,V5V 3N8,BC,America/Vancouver,Cocoet Olive Fine Foods Ltd,89a0b49a66e54a7639ad960962148a3e
5e27ecc49309440008cb03ae,13065,[],20,49.252954,-123.101296,CA,,"3593 Main St, Vancouver BC V5V 3N4",Vancouver,V5V 3N4,BC,America/Vancouver,Published on Main,89a0b49a66e54a7639ad960962148a3e
4cafd9a3c5e6a1cd1983d0f6,13065,[],151,49.251388,-123.101244,CA,22nd Avenue E,"3755 Main St (22nd Avenue E), Vancouver BC V5V 3N8",Vancouver,V5V 3N8,BC,America/Vancouver,Bob Likes Thai Food,89a0b49a66e54a7639ad960962148a3e
4c058d82191f20a11e43e314,13065,[],166,49.254066,-123.101309,CA,,"3449 Main St, Vancouver BC V5V 3M9",Vancouver,V5V 3M9,BC,America/Vancouver,Church's Chicken,89a0b49a66e54a7639ad960962148a3e
534a189c498ee81aa4fd6589,13065,[],86,49.251867,-123.100717,CA,,"3710 Main St, Vancouver BC V5V 3N7",Vancouver,V5V 3N7,BC,America/Vancouver,Zipang Sushi,89a0b49a66e54a7639ad960962148a3e
583fa023d25ded6685a2353d,13065,[],102,49.251754,-123.100707,CA,,"3710 Main St, Vancouver BC V5V 3N7",Vancouver,V5V 3N7,BC,America/Vancouver,Sushi Main,89a0b49a66e54a7639ad960962148a3e
74bba6d0cf0f455b8f31f00a,13065,[],24,49.25248,-123.101174,CA,,"2280 Main St, Vancouver BC",Vancouver,,BC,,Cultivate Tea,89a0b49a66e54a7639ad960962148a3e
7d6ef0b8602745697a2e336c,13065,[],29,49.252954,-123.101296,CA,,"3593 Main St, Vancouver BC V5V 3N4",Vancouver,V5V 3N4,BC,,Published on Main,89a0b49a66e54a7639ad960962148a3e
32f5e100e1974a40219bc66a,13065,"[{'id': 'ab4a6b90-d68a-012e-5619-003048cad9da', 'name': 'Pizza Hut'}]",182,49.254329,-123.101251,CA,,"3425 Main St, Vancouver BC V5V 3M9",Vancouver,V5V 3M9,BC,,Pizza Hut,89a0b49a66e54a7639ad960962148a3e
4f68d5dee4b0bb1b18b8af39,13065,[],159,49.272343,-123.095888,CA,,"333 Terminal Ave, Vancouver BC V6A 4C1",Vancouver,V6A 4C1,BC,America/Vancouver,To Dine for Eatery,44fc3d58831a9f2b919c7a3a1838b74a
4b4a2eaaf964a520af7d26e3,13065,"[{'id': 'd5719cc0-d890-0132-61d3-7a163eb2a6fc', 'name': 'Tim Hortons'}]",20,49.272159,-123.097819,CA,at Station St.,"306 Terminal Ave (at Station St.), Vancouver BC V6A 3W9",Vancouver,V6A 3W9,BC,America/Vancouver,Tim Hortons,44fc3d58831a9f2b919c7a3a1838b74a
55f70486498e2feb3361838b,13065,"[{'id': '16cd7840-992b-0132-fd75-7a163eb2a6fc', 'name': 'A&W Restaurant'}]",178,49.273801,-123.097959,CA,,"1150 Station St, Vancouver BC V6A 4C7",Vancouver,V6A 4C7,BC,America/Vancouver,A&W Restaurant,44fc3d58831a9f2b919c7a3a1838b74a
fbab9ed726164604a3f035c4,13065,[],176,49.27376,-123.097793,CA,,"1150 Station St, Vancouver BC V6A 4C7",Vancouver,V6A 4C7,BC,,Central Station Cuppuccino Bar,44fc3d58831a9f2b919c7a3a1838b74a
4aac26d9f964a5208a5c20e3,13065,[],107,49.271855,-123.190736,CA,,"3875 Pt Grey Rd, Vancouver BC V6R 1B3",Vancouver,V6R 1B3,BC,America/Vancouver,Brock House Restaurant,d40db8c27c5bd409d57cfa846f73c378
52ae4f3c11d227ba4f4b055a,13065,[],73,49.258983,-123.115272,CA,,"2961 Cambie St, Vancouver BC V5Z 2V7",Vancouver,V5Z 2V7,BC,America/Vancouver,Indian Roti Kitchen,07b13214cb69f2ec007d888450f3d6bc
57e6d0a2498e8d223bc2af56,13065,[],129,49.25837,-123.114814,CA,,"3010 Cambie St, Vancouver BC V5Z 2V9",Vancouver,V5Z 2V9,BC,America/Vancouver,Passion8 Dessert Cafe,07b13214cb69f2ec007d888450f3d6bc
4af0ca31f964a52035df21e3,13065,[],113,49.258597,-123.114833,CA,W 14th,"3004 Cambie St (W 14th), Vancouver BC V5Z 2V9",Vancouver,V5Z 2V9,BC,America/Vancouver,The Firewood Cafe,07b13214cb69f2ec007d888450f3d6bc
4aac71adf964a520fa5d20e3,13065,[],183,49.257932,-123.114615,CA,,"3096 Cambie St, Vancouver BC V5Z 2V9",Vancouver,V5Z 2V9,BC,America/Vancouver,Shiro Japanese Restaurant,07b13214cb69f2ec007d888450f3d6bc
4aa82865f964a520b34f20e3,13065,[],87,49.25887,-123.115262,CA,at 14th Ave.,"2975 Cambie St (at 14th Ave.), Vancouver BC V5Z 2V7",Vancouver,V5Z 2V7,BC,America/Vancouver,Tropika Malaysian & Thai Cuisine 星馬印,07b13214cb69f2ec007d888450f3d6bc
4b7205ecf964a520ac6a2de3,13065,"[{'id': '16cd7840-992b-0132-fd75-7a163eb2a6fc', 'name': 'A&W Restaurant'}]",179,49.260739,-123.116314,CA,,"555 12th Ave W, Vancouver BC V5Z 3X7",Vancouver,V5Z 3X7,BC,America/Vancouver,A&W Restaurant,07b13214cb69f2ec007d888450f3d6bc
4c47a56896abd13a8eb47101,13065,[],43,49.259246,-123.115213,CA,,"2925 Cambie St, Vancouver BC V5Z 2V7",Vancouver,V5Z 2V7,BC,America/Vancouver,New Sun Restaurant,07b13214cb69f2ec007d888450f3d6bc
5e1e5c46568f980008a9fad9,13065,[],68,49.260059,-123.114471,CA,W 12th Avenue,"2808 Cambie St (W 12th Avenue), Vancouver BC V5Z 2V5",Vancouver,V5Z 2V5,BC,America/Vancouver,iDen & Quan Ju de Beijing Duck House,07b13214cb69f2ec007d888450f3d6bc
4bc2aa604cdfc9b6a9749621,13065,[],111,49.258597,-123.114833,CA,,"3002 Cambie St, Vancouver BC V5Z 2V9",Vancouver,V5Z 2V9,BC,America/Vancouver,Hot Delivery Chinese Food,07b13214cb69f2ec007d888450f3d6bc
6031681b8f3fbb0da52233f2,13065,[],131,49.260723,-123.115582,CA,,"555 12th Ave W, Vancouver BC V5Z 3X7",Vancouver,V5Z 3X7,BC,America/Vancouver,Regal Mansion Cusine,07b13214cb69f2ec007d888450f3d6bc
6194486bcfc5a57be287e71f,13065,[],164,49.258082,-123.114546,CA,,"3088 Cambie St, Vancouver BC V5Z 2V9",Vancouver,V5Z 2V9,BC,America/Vancouver,Chirpyhut Fried Chicken,07b13214cb69f2ec007d888450f3d6bc
5b6c8e6bbd4009002c2b3bcf,13065,[],174,49.260909,-123.116328,CA,,"555 12th Ave W, Vancouver BC V5Z 3X7",Vancouver,V5Z 3X7,BC,America/Vancouver,Bubble Waffle Cafe,07b13214cb69f2ec007d888450f3d6bc
62d47a8219f50c000af52313,13065,[],179,49.260909,-123.116328,CA,Cambie St,"555 12th Ave W (Cambie St), Vancouver BC V5Z 3X7",Vancouver,V5Z 3X7,BC,America/Vancouver,Five Star Fried Chicken,07b13214cb69f2ec007d888450f3d6bc
4d34af7a6c7c721ef547c456,13065,[],189,49.260703,-123.116392,CA,,"555 12th Ave W, Vancouver BC V5Z 3X7",Vancouver,V5Z 3X7,BC,America/Vancouver,Sizzling Wok,07b13214cb69f2ec007d888450f3d6bc
4be48099910020a134ced114,13065,[],189,49.260796,-123.116318,CA,at Cambie St in City Square Shopping Centre,"555 12th Ave W (at Cambie St in City Square Shopping Centre), Vancouver BC V5Z 3X7",Vancouver,V5Z 3X7,BC,America/Vancouver,Cultured Coffee & Tea,07b13214cb69f2ec007d888450f3d6bc
89795ebbd0664afe36d82fe9,13065,[],81,49.258926,-123.115267,CA,,"2975 Cambie St, Vancouver BC V5Z 2V7",Vancouver,V5Z 2V7,BC,,Tropika on Cambie,07b13214cb69f2ec007d888450f3d6bc
13d33468ef3247459f0214b8,13065,[],81,49.258926,-123.115267,CA,,"2975 Cambie St, Vancouver BC V5Z 2V7",Vancouver,V5Z 2V7,BC,,Malaysian & Thai Cuisine,07b13214cb69f2ec007d888450f3d6bc
53035176ba744daa9e449e8a,13065,[],166,49.260646,-123.116387,CA,,"555 12th Ave W, Vancouver BC V5Z 3X7",Vancouver,V5Z 3X7,BC,,Liu T,07b13214cb69f2ec007d888450f3d6bc
80d53a43efc54e3eb840f27b,13065,[],166,49.260646,-123.116387,CA,,"555 12th Ave W, Vancouver BC V5Z 3X7",Vancouver,V5Z 3X7,BC,,Crepe de France,07b13214cb69f2ec007d888450f3d6bc
9521198a226943f85386e000,13065,[],166,49.260646,-123.116387,CA,,"555 12th Ave W, Vancouver BC V5Z 3X7",Vancouver,V5Z 3X7,BC,,Rapid Wrap Fast Food,07b13214cb69f2ec007d888450f3d6bc
94e7b9924728493cb0bad9de,13065,[],176,49.26076,-123.116397,CA,,"555 12th Ave W, Vancouver BC V5Z 3X7",Vancouver,V5Z 3X7,BC,,Arby's Roast Beef Restaurants,07b13214cb69f2ec007d888450f3d6bc
1c177002d1304ae7f9f71ea2,13065,[],192,49.260693,-123.116796,CA,,"555 12th Ave W, Vancouver BC V5Z 3X7",Vancouver,V5Z 3X7,BC,,Edo Japan-edo Intl Food Inc,07b13214cb69f2ec007d888450f3d6bc
5851f5b5297c16529dd5cf93,13065,[],61,49.28964,-123.138493,CA,,"975 Denman St, Vancouver BC V6G 2M3",Vancouver,V6G 2M3,BC,America/Vancouver,Peaked Pies,f5e8fa1fc4252bda2f93dd27ed2d603f
4aa75933f964a520bf4c20e3,13065,[],150,49.288276,-123.139917,CA,btwn Comox & Pendrell St.,"1096 Denman St (btwn Comox & Pendrell St.), Vancouver BC V6G 2M8",Vancouver,V6G 2M8,BC,America/Vancouver,Banana Leaf,f5e8fa1fc4252bda2f93dd27ed2d603f
4aa97328f964a520b45320e3,13065,[],109,49.28981,-123.137615,CA,at Barclay St,"948 Denman St (at Barclay St), Vancouver BC V6G 2M1",Vancouver,V6G 2M1,BC,America/Vancouver,Joe's Grill,f5e8fa1fc4252bda2f93dd27ed2d603f
4abfcaf5f964a5203c9220e3,13065,[],117,49.288425,-123.139849,CA,at Comox St,"1074 Denman St (at Comox St), Vancouver BC V6G 2M8",Vancouver,V6G 2M8,BC,America/Vancouver,Legendary Noodle House,f5e8fa1fc4252bda2f93dd27ed2d603f
50527ea7e4b0588850a3fbab,13065,[],189,49.288096,-123.140307,CA,at Pendrell St.,"1118 Denman St (at Pendrell St.), Vancouver BC V6G 2M8",Vancouver,V6G 2M8,BC,America/Vancouver,Espana,f5e8fa1fc4252bda2f93dd27ed2d603f
4aa97604f964a520c65320e3,13065,[],37,49.289408,-123.138229,CA,Nelson,"998 Denman St (Nelson), Vancouver BC V6G 2M1",Vancouver,V6G 2M1,BC,America/Vancouver,Olympia Restaurant,f5e8fa1fc4252bda2f93dd27ed2d603f
4ad008e2f964a5205fd720e3,13065,[],176,49.288307,-123.140488,CA,at Comox St.,"1105 Denman St (at Comox St.), Vancouver BC V6G 2M7",Vancouver,V6G 2M7,BC,America/Vancouver,Delany's Coffee House,f5e8fa1fc4252bda2f93dd27ed2d603f
58fe81bfc9f9076bbbf5bfa1,13065,"[{'id': '16cd7840-992b-0132-fd75-7a163eb2a6fc', 'name': 'A&W Restaurant'}]",59,49.28964,-123.138493,CA,,"991 Denman St, Vancouver BC V6G 2M3",Vancouver,V6G 2M3,BC,America/Vancouver,A&W Restaurant,f5e8fa1fc4252bda2f93dd27ed2d603f
52af9df1498e9ed2ad4ad500,13065,[],75,49.289594,-123.138083,CA,btwn Nelson & Barclay,"976 Denman St (btwn Nelson & Barclay), Vancouver BC V6G 2M1",Vancouver,V6G 2M1,BC,America/Vancouver,Cafe Phin,f5e8fa1fc4252bda2f93dd27ed2d603f
4aa97278f964a520b25320e3,13065,[],147,49.290242,-123.137571,CA,Barclay St.,"935 Denman St (Barclay St.), Vancouver BC V6G 2L9",Vancouver,V6G 2L9,BC,America/Vancouver,Blenz Coffee,f5e8fa1fc4252bda2f93dd27ed2d603f
5968495bbcbf7a5c8a65f56d,13065,"[{'id': 'd5719cc0-d890-0132-61d3-7a163eb2a6fc', 'name': 'Tim Hortons'}]",58,49.289295,-123.139112,CA,Nelson,"1001 Denman St (Nelson), Vancouver BC V6G 2M4",Vancouver,V6G 2M4,BC,America/Vancouver,Tim Hortons,f5e8fa1fc4252bda2f93dd27ed2d603f
4b66044ff964a520a40e2be3,13065,[],138,49.288636,-123.140029,CA,btwn Comox St & Pendrell St,"1069 Denman St (btwn Comox St & Pendrell St), Vancouver BC V6G 2M7",Vancouver,V6G 2M7,BC,America/Vancouver,Akira Sushi,f5e8fa1fc4252bda2f93dd27ed2d603f
4be8674c947820a1a3dcb4db,13065,[],162,49.288111,-123.140146,CA,btwn Pendrell & Comox,"1110 Denman St (btwn Pendrell & Comox), Vancouver BC V6G 2M8",Vancouver,V6G 2M8,BC,America/Vancouver,Falafel King Restaurant,f5e8fa1fc4252bda2f93dd27ed2d603f
4aada3cff964a5201d6120e3,13065,[],129,49.2886,-123.140107,CA,,"1080 Denman St, Vancouver BC V6G 2M8",Vancouver,V6G 2M8,BC,America/Vancouver,Nat's Pizzeria,f5e8fa1fc4252bda2f93dd27ed2d603f
5afe50e7aa6c95002caf3675,13065,[],40,49.289388,-123.138147,CA,,"990 Denman St, Vancouver BC V6G 2M1",Vancouver,V6G 2M1,BC,America/Vancouver,Mitbit,f5e8fa1fc4252bda2f93dd27ed2d603f
50fc78f4e4b020b565a97c05,13065,"[{'id': 'ab4a9b10-d68a-012e-5619-003048cad9da', 'name': 'Burger King'}]",43,49.288899,-123.139078,CA,,"1030 Denman St, Vancouver BC V6G 2M6",Vancouver,V6G 2M6,BC,America/Vancouver,Burger King,f5e8fa1fc4252bda2f93dd27ed2d603f
5f7a1ff398df6d72aa1bcfce,13065,[],61,49.28948,-123.138073,CA,,"976 Denman St, Vancouver BC V6G 2M1",Vancouver,V6G 2M1,BC,America/Vancouver,Ongba Vietnamese Eatery,f5e8fa1fc4252bda2f93dd27ed2d603f
4ad6701ef964a520300721e3,13065,[],63,49.289712,-123.138337,CA,btwn Barclay & Nelson,"969 Denman St (btwn Barclay & Nelson), Vancouver BC V6G 2M3",Vancouver,V6G 2M3,BC,America/Vancouver,Panago Pizza Inc,f5e8fa1fc4252bda2f93dd27ed2d603f
5f78f71dee61ef117f87314d,13065,[],78,49.288945,-123.139488,CA,,"1047 Denman St, Vancouver BC V6G 2M4",Vancouver,V6G 2M4,BC,America/Vancouver,Sushi Aboard,f5e8fa1fc4252bda2f93dd27ed2d603f
5b4e9f756bd36b002cebafb8,13065,[],119,49.288369,-123.139844,CA,Comox,"1072 Denman St (Comox), Vancouver BC V6G 2M8",Vancouver,V6G 2M8,BC,America/Vancouver,Gillaneh Grill House,f5e8fa1fc4252bda2f93dd27ed2d603f
5b65160ac03635002c2ce08c,13065,[],124,49.2886,-123.140107,CA,,"1059 Denman St, Vancouver BC V6G 2M7",Vancouver,V6G 2M7,BC,America/Vancouver,Shizenya on Denman,f5e8fa1fc4252bda2f93dd27ed2d603f
6258854dbf92f7404dc513e0,13065,[],128,49.288564,-123.140185,CA,,"1061 Denman St, Vancouver BC V6G 2M7",Vancouver,V6G 2M7,BC,America/Vancouver,Thios,f5e8fa1fc4252bda2f93dd27ed2d603f
5b4e9037c9a517002cd3753d,13065,[],133,49.288369,-123.139844,CA,,"1080 Denman St, Vancouver BC V6G 2M8",Vancouver,V6G 2M8,BC,America/Vancouver,Nat's New York Pizzaria,f5e8fa1fc4252bda2f93dd27ed2d603f
552499b1498e8396bd7082d2,13065,[],141,49.288369,-123.139844,CA,,"1088 Denman St, Vancouver BC V6G 2M8",Vancouver,V6G 2M8,BC,America/Vancouver,Kitaya,f5e8fa1fc4252bda2f93dd27ed2d603f
5e645a0e0b66dc00082892ac,13065,[],143,49.288369,-123.139844,CA,,"1088 Denman St, Vancouver BC V6G 2M8",Vancouver,V6G 2M8,BC,America/Vancouver,Ofra's Kitchen,f5e8fa1fc4252bda2f93dd27ed2d603f
633648bf5102e614a125765e,13065,[],169,49.288348,-123.140653,CA,at Jepson-Young Ln,"1101 Denman St (at Jepson-Young Ln), Vancouver BC V6G 2M7",Vancouver,V6G 2M7,BC,America/Vancouver,The Frying Pan,f5e8fa1fc4252bda2f93dd27ed2d603f
5d8d70cb9103f600080aa56b,13065,[],178,49.288271,-123.140566,CA,,"1103 Denman St, Vancouver BC V6G 2M7",Vancouver,V6G 2M7,BC,America/Vancouver,Big Bang Sushi,f5e8fa1fc4252bda2f93dd27ed2d603f
54d57947498e2290e6924560,13065,[],192,49.288024,-123.140463,CA,,"1120 Denman St, Vancouver BC V6G 2M8",Vancouver,V6G 2M8,BC,America/Vancouver,Che-licious,f5e8fa1fc4252bda2f93dd27ed2d603f
41c2622789f741e658872d01,13065,[],35,49.289393,-123.13839,CA,,"998 Denman St, Vancouver BC V6G 2M1",Vancouver,V6G 2M1,BC,,Olympia Pizza & Pasta Restaurant on Denman,f5e8fa1fc4252bda2f93dd27ed2d603f
0ca8137d85d34dc22b88c522,13065,[],78,49.2886,-123.139215,CA,,"1779 Comox St, Vancouver BC V6G 1P5",Vancouver,V6G 1P5,BC,,Vancouver Retro Cinema Fest,f5e8fa1fc4252bda2f93dd27ed2d603f
58132714307142b449ce39da,13065,[],98,49.289933,-123.138112,CA,,"957 Denman St, Vancouver BC V6G 2M3",Vancouver,V6G 2M3,BC,,Hunky Bill's House of Perogies,f5e8fa1fc4252bda2f93dd27ed2d603f
080f755196184476fa46c840,13065,[],132,49.287957,-123.139079,CA,,"1740 Comox St, Vancouver BC V6G 2Z1",Vancouver,V6G 2Z1,BC,,"Sweet Surrender: a gluten free, uncontaminated bakery",f5e8fa1fc4252bda2f93dd27ed2d603f
1083d8ac72c54d3931a57454,13065,[],167,49.290407,-123.137341,CA,,"907 Denman St, Vancouver BC V6G 2L9",Vancouver,V6G 2L9,BC,,Booster Juice,f5e8fa1fc4252bda2f93dd27ed2d603f
fdb53dc0b6784badd036e34f,13065,[],172,49.290463,-123.137346,CA,,"907 Denman St, Vancouver BC V6G 2L9",Vancouver,V6G 2L9,BC,,Hui Lau Shan,f5e8fa1fc4252bda2f93dd27ed2d603f
34e211c1a5c247c92fe8b0e5,13065,[],181,49.288348,-123.140653,CA,,"1103 Denman St, Vancouver BC V6G 2M7",Vancouver,V6G 2M7,BC,,Thai House Restaurant,f5e8fa1fc4252bda2f93dd27ed2d603f
983ebbb0a6694bd7258b18da,13065,[],197,49.290607,-123.137034,CA,,"867 Denman St, Vancouver BC V6G 2L9",Vancouver,V6G 2L9,BC,,Damso Restaurant Ltd,f5e8fa1fc4252bda2f93dd27ed2d603f
4dbb17935da3ff58ec28adc9,13065,[],42,49.287591,-123.123553,CA,btwn Bute & Thurlow,"1181 Melville St (btwn Bute & Thurlow), Vancouver BC V6E 0A3",Vancouver,V6E 0A3,BC,America/Vancouver,Tableau Bar Bistro,c2a9c5d0e4578b928554c86f3d2c1162
5929eeabc21cb17f3424a0bf,13065,[],104,49.287072,-123.124806,CA,,"1185 W Georgia St, Vancouver BC V6E 4E6",Vancouver,V6E 4E6,BC,America/Vancouver,Yui Japanese Bistro,c2a9c5d0e4578b928554c86f3d2c1162
4aafd980f964a520e86420e3,13065,[],31,49.288008,-123.123669,CA,at Melville St.,"560 Bute St (at Melville St.), Vancouver BC V6E 3M1",Vancouver,V6E 3M1,BC,America/Vancouver,Green Leaf Salad Bar,c2a9c5d0e4578b928554c86f3d2c1162
4c2e95f9213c2d7f0c862f5d,13065,[],195,49.28649,-123.125811,CA,at Bute St,"1188 Alberni St (at Bute St), Vancouver BC V6E 1A5",Vancouver,V6E 1A5,BC,America/Vancouver,JJ Bean Coffee Roasters,c2a9c5d0e4578b928554c86f3d2c1162
4eefc782d5fbe9f4b1f525f5,13065,[],155,49.28685,-123.122354,CA,Thurlow St.,"1115 Melville St (Thurlow St.), Vancouver BC V6E 0B7",Vancouver,V6E 0B7,BC,America/Vancouver,Sciue Italian Bakery Caffe,c2a9c5d0e4578b928554c86f3d2c1162
582655cc2db9f34c9dba2e7a,13065,"[{'id': '16cd7840-992b-0132-fd75-7a163eb2a6fc', 'name': 'A&W Restaurant'}]",48,49.288008,-123.123669,CA,West Pender St,"550 Bute St (West Pender St), Vancouver BC V6E 3M1",Vancouver,V6E 3M1,BC,America/Vancouver,A&W Restaurant,c2a9c5d0e4578b928554c86f3d2c1162
4fd115cae4b066efff5b5e97,13065,[],121,49.287072,-123.124806,CA,Bute,"1185 Georgia St W (Bute), Vancouver BC V6E 4E6",Vancouver,V6E 4E6,BC,America/Vancouver,Freshii,c2a9c5d0e4578b928554c86f3d2c1162
4aa7e4ebf964a520e84d20e3,13065,[],70,49.288245,-123.123284,CA,at Bute St.,"1198 Pender St W (at Bute St.), Vancouver BC V6E 2R9",Vancouver,V6E 2R9,BC,America/Vancouver,Waves Coffee House,c2a9c5d0e4578b928554c86f3d2c1162
4b50afe3f964a520822d27e3,13065,[],134,49.288286,-123.122557,CA,Pender & Bute,"1177 Pender St W (Pender & Bute), Vancouver BC V6E 2P4",Vancouver,V6E 2P4,BC,America/Vancouver,Prestons,c2a9c5d0e4578b928554c86f3d2c1162
4aa81513f964a5202e4f20e3,13065,[],24,49.288008,-123.123669,CA,at Melville St.,"570 Bute St (at Melville St.), Vancouver BC V6E 3M1",Vancouver,V6E 3M1,BC,America/Vancouver,Sushi Go,c2a9c5d0e4578b928554c86f3d2c1162
5977bfd0f2905e16c7c7a95c,13065,"[{'id': 'd5719cc0-d890-0132-61d3-7a163eb2a6fc', 'name': 'Tim Hortons'}]",177,49.287514,-123.12168,CA,,"1130 Pender St W, Vancouver BC V6E 4A4",Vancouver,V6E 4A4,BC,America/Vancouver,Tim Hortons,c2a9c5d0e4578b928554c86f3d2c1162
4c23a8f3f1272d7f67c981c5,13065,[],83,49.287133,-123.12327,CA,btwn Thurlow and Bute,"1150 Melville St (btwn Thurlow and Bute), Vancouver BC V6E 4P6",Vancouver,V6E 4P6,BC,America/Vancouver,Time Out Cafe,c2a9c5d0e4578b928554c86f3d2c1162
4d8660c061676dcb22d59ee4,13065,[],89,49.288461,-123.122816,CA,at Bute St,"1199 Pender St W (at Bute St), Vancouver BC V6E 2R1",Vancouver,V6E 2R1,BC,America/Vancouver,Panago Pizza Inc,c2a9c5d0e4578b928554c86f3d2c1162
51a8b3eb8bbd7647a230a356,13065,[],195,49.287962,-123.121475,CA,btwn bute and thurlow,"1139 Pender St W (btwn bute and thurlow), Vancouver BC V6E 2P4",Vancouver,V6E 2P4,BC,America/Vancouver,Smak Healthy Fast Food,c2a9c5d0e4578b928554c86f3d2c1162
61a1b72396e4234908bd2dbc,13065,[],108,49.286835,-123.124299,CA,,"1161 Georgia St W, Vancouver BC V6E 0C6",Vancouver,V6E 0C6,BC,America/Vancouver,Mott 32,c2a9c5d0e4578b928554c86f3d2c1162
6291cc2ec27d1c5140bc6ab5,13065,[],116,49.286835,-123.124299,CA,,"1161 Georgia St W, Vancouver BC V6E 0C6",Vancouver,V6E 0C6,BC,America/Vancouver,Karma Lounge,c2a9c5d0e4578b928554c86f3d2c1162
5c76f98ef62e09002c2736d7,13065,[],130,49.287529,-123.121519,CA,Thurlow Street,"1130 Pender St W (Thurlow Street), Vancouver BC V6E 4A4",Vancouver,V6E 4A4,BC,America/Vancouver,Indian Delicacy,c2a9c5d0e4578b928554c86f3d2c1162
5de03780b298290008a4ed0c,13065,[],191,49.286675,-123.122095,CA,,"1100 Melville, Vancouver BC V6E 4A6",Vancouver,V6E 4A6,BC,America/Vancouver,Sushi California,c2a9c5d0e4578b928554c86f3d2c1162
4e5d54d8a8092f639683502d,13065,[],193,49.28771,-123.122021,CA,Pender & Thurlow,"1140 Pender St W (Pender & Thurlow), Vancouver BC V6E 4G1",Vancouver,V6E 4G1,BC,America/Vancouver,Symphonie Restaurant,c2a9c5d0e4578b928554c86f3d2c1162
0ffde272073d423ce3bcc39b,13065,[],121,49.288399,-123.122567,CA,,"1177 Pender St W, Vancouver BC V6E 2P4",Vancouver,V6E 2P4,BC,,Joyeaux Cafe & Restaurant Ltd,c2a9c5d0e4578b928554c86f3d2c1162
ed40d3c62aaf4a5626e5e812,13065,[],137,49.288755,-123.125112,CA,,"1280 Pender St W, Vancouver BC V6E 2S8",Vancouver,V6E 2S8,BC,,Crime Lab,c2a9c5d0e4578b928554c86f3d2c1162
d2c55857e2ab44bbb81bdd67,13065,[],168,49.287457,-123.121675,CA,,"1130 Pender St W, Vancouver BC V6E 4A4",Vancouver,V6E 4A4,BC,,Herbs & Spices,c2a9c5d0e4578b928554c86f3d2c1162
2042741bc44c4b8d67f65d96,13065,[],183,49.288724,-123.121865,CA,,"1177 Hastings St W, Vancouver BC V6E 2K3",Vancouver,V6E 2K3,BC,,Garden Cafe,c2a9c5d0e4578b928554c86f3d2c1162
f86bd337967049c4f668e178,13065,[],184,49.288646,-123.121777,CA,,"1177 Hastings St W, Vancouver BC V6E 2K3",Vancouver,V6E 2K3,BC,,Pearson's Pier,c2a9c5d0e4578b928554c86f3d2c1162
5c921c4ac15446eddef55209,13065,[],191,49.288682,-123.121699,CA,,"1177 Hastings St W, Vancouver BC V6E 2K3",Vancouver,V6E 2K3,BC,,Cafe Natura Corp,c2a9c5d0e4578b928554c86f3d2c1162
4aa6bc27f964a520df4a20e3,13065,[],70,49.284949,-123.110915,CA,at Richards St,"375 Water St (at Richards St), Vancouver BC V6B 5C6",Vancouver,V6B 5C6,BC,America/Vancouver,Steamworks Brewing Co,5f45325fdd6334a4c0d3b62853b19fa6
57d05c9c498e185ed0205e5a,13065,[],132,49.283786,-123.112032,CA,at W Hastings St,"420 Richards St (at W Hastings St), Vancouver BC V6B 2Z3",Vancouver,V6B 2Z3,BC,America/Vancouver,The Poke Guy,5f45325fdd6334a4c0d3b62853b19fa6
4aa7f561f964a520384e20e3,13065,[],179,49.286766,-123.112205,CA,West Cordova Street,"200 Granville St (West Cordova Street), Vancouver BC V6C 1S4",Vancouver,V6C 1S4,BC,America/Vancouver,Miku,5f45325fdd6334a4c0d3b62853b19fa6
4aa9a524f964a520ae5420e3,13065,[],41,49.285474,-123.11169,CA,at Seymour St,"601 Cordova St W (at Seymour St), Vancouver BC V6B 1G1",Vancouver,V6B 1G1,BC,America/Vancouver,Rogue Kitchen & Wetbar,5f45325fdd6334a4c0d3b62853b19fa6
5261ea7111d2cc4cf26712e3,13065,[],164,49.283709,-123.11373,CA,at Seymour St,"534 Pender St W (at Seymour St), Vancouver BC V6B 1V3",Vancouver,V6B 1V3,BC,America/Vancouver,Cartems Donuterie,5f45325fdd6334a4c0d3b62853b19fa6
4aa75811f964a520bd4c20e3,13065,[],149,49.284816,-123.114392,CA,btwn W. Hastings & W. Pender St.,"450 Granville St (btwn W. Hastings & W. Pender St.), Vancouver BC V6C 1V4",Vancouver,V6C 1V4,BC,America/Vancouver,Trees Organic Coffee,5f45325fdd6334a4c0d3b62853b19fa6
5b29b2bafe63bd002c253c49,13065,[],64,49.285685,-123.11187,CA,,"601 Cordova St W, Vancouver BC V6B 1G1",Vancouver,V6B 1G1,BC,America/Vancouver,Chronic Tacos,5f45325fdd6334a4c0d3b62853b19fa6
4aa7393bf964a5205b4c20e3,13065,[],158,49.284728,-123.110247,CA,btwn Cambie & Richards,"375 Water St (btwn Cambie & Richards), Vancouver BC V6B 5C6",Vancouver,V6B 5C6,BC,America/Vancouver,Kitanoya Guu With Otoko Mae,5f45325fdd6334a4c0d3b62853b19fa6
5a625194b1538e3d54910a2c,13065,[],106,49.284836,-123.110905,CA,10th Avenue,"508 Cordova St W (10th Avenue), Vancouver BC V6B 0G8",Vancouver,V6B 0G8,BC,America/Vancouver,Ignite Pizzeria,5f45325fdd6334a4c0d3b62853b19fa6
4beb024e6295c9b62d298708,13065,[],79,49.285701,-123.111709,CA,at Cordova St,"Granville St at Cordova St (at Cordova St), Vancouver BC V6C 2R6",Vancouver,V6C 2R6,BC,America/Vancouver,Japadog - Waterfront Skytrain Station,5f45325fdd6334a4c0d3b62853b19fa6
54dbd5c6498e8ed28e103b70,13065,[],138,49.283714,-123.112189,CA,,"422 Richards St, Vancouver BC V6B 2Z4",Vancouver,V6B 2Z4,BC,America/Vancouver,Vegan Pudding & Co,5f45325fdd6334a4c0d3b62853b19fa6
4aa9614ff964a520615320e3,13065,"[{'id': 'd5719cc0-d890-0132-61d3-7a163eb2a6fc', 'name': 'Tim Hortons'}]",23,49.284955,-123.112051,CA,at Seymour St.,"515 Hastings St W (at Seymour St.), Vancouver BC V6B 5K3",Vancouver,V6B 5K3,BC,America/Vancouver,Tim Hortons,5f45325fdd6334a4c0d3b62853b19fa6
551045fe498e2de04c7cc1b7,13065,[],173,49.28355,-123.112418,CA,Hastings St,"436 Richards St (Hastings St), Vancouver BC V6B 2Z3",Vancouver,V6B 2Z3,BC,America/Vancouver,Indigo Age Cafe,5f45325fdd6334a4c0d3b62853b19fa6
4aab442ef964a520565920e3,13065,[],166,49.284039,-123.114163,CA,at Seymour St,"608 Pender St W (at Seymour St), Vancouver BC V6B 1V8",Vancouver,V6B 1V8,BC,America/Vancouver,Malone's,5f45325fdd6334a4c0d3b62853b19fa6
4acced76f964a52015ca20e3,13065,[],80,49.284584,-123.113236,CA,at W Hastings St,"423 Seymour St (at W Hastings St), Vancouver BC V6B 3H5",Vancouver,V6B 3H5,BC,America/Vancouver,Kita No Donburi,5f45325fdd6334a4c0d3b62853b19fa6
4aa738b0f964a520584c20e3,13065,[],165,49.284728,-123.110247,CA,btwn Cambie & Richards,"375 Water St (btwn Cambie & Richards), Vancouver BC V6B 5C6",Vancouver,V6B 5C6,BC,America/Vancouver,Momo Sushi,5f45325fdd6334a4c0d3b62853b19fa6
4aabc53bf964a520045a20e3,13065,[],124,49.284054,-123.112218,CA,at Richards St.,"508 Hastings St W (at Richards St.), Vancouver BC V6B 1L6",Vancouver,V6B 1L6,BC,America/Vancouver,Blenz Coffee,5f45325fdd6334a4c0d3b62853b19fa6
530272b5498ebf98dce9de5d,13065,[],36,49.284785,-123.112036,CA,,"555 Hastings St W, Vancouver BC V6B 4N6",Vancouver,V6B 4N6,BC,America/Vancouver,Fatburger,5f45325fdd6334a4c0d3b62853b19fa6
4b74888ff964a5204fe22de3,13065,[],176,49.283529,-123.111443,CA,btwn Richards & Homer,"426 Hastings St W (btwn Richards & Homer), Vancouver BC V6B 1L1",Vancouver,V6B 1L1,BC,America/Vancouver,Bonchaz Bakery Cafe,5f45325fdd6334a4c0d3b62853b19fa6
4c324cf366e40f47f94ac68b,13065,[],159,49.28478,-123.11447,CA,at Pender St,"466 Granville St (at Pender St), Vancouver BC V6C 1V4",Vancouver,V6C 1V4,BC,America/Vancouver,Crème de la Crumb,5f45325fdd6334a4c0d3b62853b19fa6
52eabc15498e7977c643be04,13065,[],58,49.284749,-123.112114,CA,btwn Seymour & Richards St,"555 Hastings St W (btwn Seymour & Richards St), Vancouver BC V6B 4N5",Vancouver,V6B 4N5,BC,America/Vancouver,Thai Express,5f45325fdd6334a4c0d3b62853b19fa6
4d5c2eea524fa35d96c14635,13065,"[{'id': '16cd7840-992b-0132-fd75-7a163eb2a6fc', 'name': 'A&W Restaurant'}]",91,49.285881,-123.112211,CA,,"601 Cordova St W, Vancouver BC V6B 1G1",Vancouver,V6B 1G1,BC,America/Vancouver,A&W Restaurant,5f45325fdd6334a4c0d3b62853b19fa6
62e7f57d8cd81b5c81e2ab56,13065,[],25,49.285264,-123.112402,CA,W Cordova St,"325 Seymour St (W Cordova St), Vancouver BC V6B 0S8",Vancouver,V6B 0S8,BC,America/Vancouver,Deville Coffee,5f45325fdd6334a4c0d3b62853b19fa6
56fd8201498e01c863d68502,13065,[],48,49.284821,-123.111958,CA,Richards St,"555 Hastings St W (Richards St), Vancouver BC V6B 4N5",Vancouver,V6B 4N5,BC,America/Vancouver,Teppan Kitchen,5f45325fdd6334a4c0d3b62853b19fa6
52ec0c19498e6ec4bad9b3eb,13065,[],68,49.284749,-123.112114,CA,,"555 Hastings St W, Vancouver BC V6B 4N5",Vancouver,V6B 4N5,BC,America/Vancouver,Camay Wok Restaurant,5f45325fdd6334a4c0d3b62853b19fa6
595d4c789ec3991d3cb3dc1d,13065,[],69,49.284636,-123.112105,CA,Richards St.,"555 Hastings St W (Richards St.), Vancouver BC V6B 4N5",Vancouver,V6B 4N5,BC,America/Vancouver,Bubble Waffle Cafe,5f45325fdd6334a4c0d3b62853b19fa6
4ae89948f964a520bbb021e3,13065,[],160,49.284008,-123.113593,CA,at Seymour St,"595 Pender St W (at Seymour St), Vancouver BC V6B 1V5",Vancouver,V6B 1V5,BC,America/Vancouver,2001 Flavours,5f45325fdd6334a4c0d3b62853b19fa6
4cd418ab5fffa090f2570afb,13065,[],85,49.284214,-123.112637,CA,Between Seymour and Richards,"550 Hastings St W (Between Seymour and Richards), Vancouver BC V6B 1L6",Vancouver,V6B 1L6,BC,America/Vancouver,Spencers,5f45325fdd6334a4c0d3b62853b19fa6
5e2254e52fd72200079a4346,13065,[],98,49.284193,-123.112554,CA,,"550 Hastings St W, Vancouver BC V6B 1L6",Vancouver,V6B 1L6,BC,America/Vancouver,Stock & Supply,5f45325fdd6334a4c0d3b62853b19fa6
4ab00196f964a520816520e3,13065,[],128,49.283879,-123.111959,CA,at Richards St,"492 Hastings St W (at Richards St), Vancouver BC V6B 1L1",Vancouver,V6B 1L1,BC,America/Vancouver,Waves Coffee House,5f45325fdd6334a4c0d3b62853b19fa6
59a47c2c840fc25de911ff09,13065,[],120,49.285156,-123.114421,CA,W Hastings,"429 Granville St (W Hastings), Vancouver BC V6C 1T1",Vancouver,V6C 1T1,BC,America/Vancouver,Railtown Cafe,5f45325fdd6334a4c0d3b62853b19fa6
56ba5a39498e92bb588d840e,13065,[],131,49.285212,-123.114426,CA,,"451 Granville St, Vancouver BC V6C 1T1",Vancouver,V6C 1T1,BC,America/Vancouver,Nourish Vancouver,5f45325fdd6334a4c0d3b62853b19fa6
54054681498eae2180970377,13065,[],167,49.284116,-123.114251,CA,,"622 Pender St W, Vancouver BC V6B 1V8",Vancouver,V6B 1V8,BC,America/Vancouver,Gyoza Bar,5f45325fdd6334a4c0d3b62853b19fa6
55073fe8498ef84023605e92,13065,[],142,49.285763,-123.11285,CA,,"200 Granville St, Vancouver BC V6C 1S4",Vancouver,V6C 1S4,BC,America/Vancouver,Creme de la Crumb,5f45325fdd6334a4c0d3b62853b19fa6
5e2b4df654217400085738d2,13065,[],153,49.284183,-123.113851,CA,,"605 Pender St W, Vancouver BC V6B 1W7",Vancouver,V6B 1W7,BC,America/Vancouver,Keto Caveman Cafe,5f45325fdd6334a4c0d3b62853b19fa6
5a1c0095fe37405daa0e61f5,13065,[],163,49.28529,-123.114513,CA,,"433 Granville St, Vancouver BC V6C 1T1",Vancouver,V6C 1T1,BC,America/Vancouver,Festal Cafe Ltd,5f45325fdd6334a4c0d3b62853b19fa6
62f542a6f300ea17d00f4811,13065,[],167,49.283863,-123.111228,CA,,"426 Hastings, Vancouver BC V6B 1L4",Vancouver,V6B 1L4,BC,America/Vancouver,Laughing Daughters,5f45325fdd6334a4c0d3b62853b19fa6
4e91027f0aafb4070c2e4225,13065,[],173,49.28653,-123.113483,CA,Hornby Street,"837 Hastings St W (Hornby Street), Vancouver BC V6C 1B6",Vancouver,V6C 1B6,BC,America/Vancouver,The Grill at the Terminal City Club,5f45325fdd6334a4c0d3b62853b19fa6
4cfb4202c51fa1cd72fee52b,13065,[],166,49.283812,-123.113252,CA,btwn Seymour & Richards St,"549 Pender St W (btwn Seymour & Richards St), Vancouver BC V6B 1V5",Vancouver,V6B 1V5,BC,America/Vancouver,Freshslice Pizza,5f45325fdd6334a4c0d3b62853b19fa6
5011b4d5e4b001b3381f381d,13065,[],193,49.284826,-123.114879,CA,Granville St,"W Pender St (Granville St), Vancouver BC",Vancouver,,BC,America/Vancouver,Japadog,5f45325fdd6334a4c0d3b62853b19fa6
544d22bc498e60f6edfeeaa2,13065,"[{'id': 'ab4a9b10-d68a-012e-5619-003048cad9da', 'name': 'Burger King'}]",176,49.284116,-123.114251,CA,,"612 Pender St W, Vancouver BC V6B 1V8",Vancouver,V6B 1V8,BC,America/Vancouver,Burger King,5f45325fdd6334a4c0d3b62853b19fa6
b75a58b1764a4815ee36208a,13065,[],52,49.284764,-123.111954,CA,,"555 Hastings St W, Vancouver BC V6B 4N5",Vancouver,V6B 4N5,BC,,My Toan,5f45325fdd6334a4c0d3b62853b19fa6
690b6cdd854c45284cd43dcb,13065,"[{'id': '16cd7840-992b-0132-fd75-7a163eb2a6fc', 'name': 'A&W Restaurant'}]",69,49.284507,-123.112256,CA,,"555 Hastings St W, Vancouver BC V6B 4N5",Vancouver,V6B 4N5,BC,,A&W Restaurant,5f45325fdd6334a4c0d3b62853b19fa6
f129330bae3449e2e801ca5d,13065,[],109,49.284136,-123.112549,CA,,"550 Hastings St W, Vancouver BC V6B 1L6",Vancouver,V6B 1L6,BC,,Spencer's Resto Lounge,5f45325fdd6334a4c0d3b62853b19fa6
55c099336d3042caba03c407,13065,[],122,49.286226,-123.112484,CA,,"200 Granville St, Vancouver BC V6C 1S4",Vancouver,V6C 1S4,BC,,TacoTime Canada,5f45325fdd6334a4c0d3b62853b19fa6
a2cf65140e044b05063d21c5,13065,[],146,49.284816,-123.114392,CA,,"466 Granville St, Vancouver BC V6C 1V4",Vancouver,V6C 1V4,BC,,Bagel & Co,5f45325fdd6334a4c0d3b62853b19fa6
ac99df13047840ceff55718f,13065,[],174,49.286694,-123.112361,CA,,"200 Granville St, Vancouver BC V6C 1S4",Vancouver,V6C 1S4,BC,,Aburi Restaurants Canada,5f45325fdd6334a4c0d3b62853b19fa6
57071a2ecd10b75357a94f53,13065,[],124,49.248775,-123.152025,CA,,"2001 Nanton Ave, Vancouver BC V6J 4A1",Vancouver,V6J 4A1,BC,America/Vancouver,Arbutus Club Fireside Grille,085a0e120a08a80a58c0ae0ff9da565a
5435001d498ef9b3e24d2e0a,13065,[],125,49.260337,-123.096652,CA,12th Ave,"395 Kingsway (12th Ave), Vancouver BC V5T 3J7",Vancouver,V5T 3J7,BC,America/Vancouver,12 Kings Pub,bede4b24dae115d4cd43d2e6cc9812cb
5d1c0f178132b9002350bb69,13065,[],8,49.261243,-123.097621,CA,,"265 Kingsway, Vancouver BC V5T 3J5",Vancouver,V5T 3J5,BC,America/Vancouver,Sprezzatura,bede4b24dae115d4cd43d2e6cc9812cb
4bcb6f5db6c49c743b389291,13065,[],85,49.261743,-123.098069,CA,at E 10th Ave.,"215 Kingsway (at E 10th Ave.), Vancouver BC V5T 3J5",Vancouver,V5T 3J5,BC,America/Vancouver,Italia Bella Bar & Grill Restaurant,bede4b24dae115d4cd43d2e6cc9812cb
63a009c08e418a30fb18bdb4,13065,[],160,49.261294,-123.095597,CA,,"1517 Robson St, Vancouver BC V6G 1C3",Vancouver,V6G 1C3,BC,America/Vancouver,bb.q Chicken,bede4b24dae115d4cd43d2e6cc9812cb
4b5695b7f964a520e61528e3,13065,[],189,49.268693,-123.111071,CA,at Alberta St,"255 2nd Ave W (at Alberta St), Vancouver BC",Vancouver,,BC,America/Vancouver,Club House Restaurant,680b1ddfd50c4397b365c9c00f09b0d1
550b4681498e2c34aaea1a54,13065,[],151,49.267411,-123.111042,CA,Alberta St.,"310 4th Ave W (Alberta St.), Vancouver BC V5Y 1G9",Vancouver,V5Y 1G9,BC,America/Vancouver,Big Rock Brewery Ltd,680b1ddfd50c4397b365c9c00f09b0d1
4ba3aa38f964a520bc5138e3,13065,[],61,49.267303,-123.113061,CA,Yukon St,"410 2nd Ave W (Yukon St), Vancouver BC V5Y 1E2",Vancouver,V5Y 1E2,BC,America/Vancouver,De Dutch Restaurant,680b1ddfd50c4397b365c9c00f09b0d1
50d12d48e4b0bd10587bd2b3,13065,[],180,49.26877,-123.111158,CA,,"255 2nd Ave W, Vancouver BC V5Y 1C7",Vancouver,V5Y 1C7,BC,America/Vancouver,Club House Japanese Restaurant,680b1ddfd50c4397b365c9c00f09b0d1
4a77a402632442c928968308,13065,[],103,49.267972,-123.111739,CA,,"340 2nd Ave W, Vancouver BC V5Y 1C8",Vancouver,V5Y 1C8,BC,,Relish Gourmet Burgers,680b1ddfd50c4397b365c9c00f09b0d1
539cfd6f498e2eba5818d2e7,13065,[],86,49.23743,-123.155674,CA,at W 38th Ave,"5395 West Blvd (at W 38th Ave), Vancouver BC V6M 3W4",Vancouver,V6M 3W4,BC,America/Vancouver,Pizzeria Bufala,7f091b50fbbd892bf9fb869a64c47120
4b5f6cd8f964a52090b929e3,13065,[],63,49.237693,-123.155615,CA,37th,"5367 West Blvd (37th), Vancouver BC V6M 3W4",Vancouver,V6M 3W4,BC,America/Vancouver,White Spot,7f091b50fbbd892bf9fb869a64c47120
5b01f0df16fa04003926d021,13065,[],47,49.23794,-123.155717,CA,,"5335 West Blvd, Vancouver BC V6M 3W4",Vancouver,V6M 3W4,BC,America/Vancouver,Comebuy - Kerrisdale,7f091b50fbbd892bf9fb869a64c47120
f2e09665c70a43b3fd3ec160,13065,[],90,49.23743,-123.155674,CA,,"2105 38th Ave W, Vancouver BC",Vancouver,,BC,,Allison MacDonald,7f091b50fbbd892bf9fb869a64c47120
510955e4e4b08c09c7a07f54,13065,[],140,49.284964,-123.059959,CA,at Templeton St,"2173 Dundas St (at Templeton St), Vancouver BC V5L 1J7",Vancouver,V5L 1J7,BC,America/Vancouver,Far Out Coffee Post,7c17f51469f1a7145455f65ef6afbd87
4ba6f3aef964a520827939e3,13065,"[{'id': 'ab4bee40-d68a-012e-5619-003048cad9da', 'name': 'Subway'}]",65,49.285053,-123.06232,CA,,"2079 Dundas St, Vancouver BC V5L 1J5",Vancouver,V5L 1J5,BC,America/Vancouver,Subway,7c17f51469f1a7145455f65ef6afbd87
4ad0e5bef964a520e1da20e3,13065,"[{'id': 'ab4a3530-d68a-012e-5619-003048cad9da', 'name': ""McDonald's""}]",183,49.285126,-123.06395,CA,at Semlin Dr,"1965 Powell St (at Semlin Dr), Vancouver BC V5L 1J2",Vancouver,V5L 1J2,BC,America/Vancouver,McDonald's,7c17f51469f1a7145455f65ef6afbd87
4b60ad09f964a52088f329e3,13065,"[{'id': 'ab4afc60-d68a-012e-5619-003048cad9da', 'name': ""Domino's Pizza""}]",61,49.285161,-123.062086,CA,,"2083 Dundas St, Vancouver BC V5L 1J5",Vancouver,V5L 1J5,BC,America/Vancouver,Domino's Pizza,7c17f51469f1a7145455f65ef6afbd87
5ad2551b249623753f85ffb3,13065,[],75,49.285033,-123.062238,CA,Lakewood Dr,"2077 Dundas St (Lakewood Dr), Vancouver BC V5L 1J5",Vancouver,V5L 1J5,BC,America/Vancouver,Dundas Eat + Drink,7c17f51469f1a7145455f65ef6afbd87
4ae7afb2f964a52058ad21e3,13065,[],78,49.249848,-123.115548,CA,at W. King Edward Ave.,"4023 Cambie St (at W. King Edward Ave.), Vancouver BC V5Z 2X9",Vancouver,V5Z 2X9,BC,America/Vancouver,Landmark Hotpot House,549f00f6039e8bb702a00dcca08a8ed0
5bfaf557d1a402002c3c369a,13065,"[{'id': 'd5719cc0-d890-0132-61d3-7a163eb2a6fc', 'name': 'Tim Hortons'}]",41,49.249287,-123.115743,CA,King Edward Avenue,"4065 Cambie St (King Edward Avenue), Vancouver BC V5Z 2X9",Vancouver,V5Z 2X9,BC,America/Vancouver,Tim Hortons,549f00f6039e8bb702a00dcca08a8ed0
4ac7bf8ff964a52081b920e3,13065,[],116,49.249951,-123.11507,CA,at W 23rd Ave.,"4008 Cambie St (at W 23rd Ave.), Vancouver BC V5Z 2X8",Vancouver,V5Z 2X8,BC,America/Vancouver,Corner 23,549f00f6039e8bb702a00dcca08a8ed0
5bf0a09116ef67002c3c16d0,13065,[],95,49.249801,-123.115138,CA,,"4020 Cambie St, Vancouver BC V5Z 2X8",Vancouver,V5Z 2X8,BC,America/Vancouver,Yifang Taiwan Fruit Tea,549f00f6039e8bb702a00dcca08a8ed0
5caa8ff83c858d0039e4c200,13065,[],102,49.249894,-123.115065,CA,,"4018 Cambie St, Vancouver BC V5Z 2X8",Vancouver,V5Z 2X8,BC,America/Vancouver,Tonton Sushi,549f00f6039e8bb702a00dcca08a8ed0
55b2fcbf498e0dc05d4ccbea,13065,[],0,49.289064,-123.132602,CA,,"832 Cardero St, Vancouver BC V6G 2G5",Vancouver,V6G 2G5,BC,America/Vancouver,Kosoo Restaurant,0c42f45e4a14957ad4a6d521d0ba8bc3
4ad687d0f964a520aa0721e3,13065,[],88,49.288894,-123.131696,CA,,"1518 Robson St, Vancouver BC V6G 1C2",Vancouver,V6G 1C2,BC,America/Vancouver,Sura,0c42f45e4a14957ad4a6d521d0ba8bc3
4aa80589f964a520ca4e20e3,13065,[],147,49.290278,-123.133923,CA,at Bidwell St,"1698 Robson St (at Bidwell St), Vancouver BC V6G 1C7",Vancouver,V6G 1C7,BC,America/Vancouver,Guu with Garlic,0c42f45e4a14957ad4a6d521d0ba8bc3
4b8c2b7ff964a520fec132e3,13065,[],138,49.290237,-123.133757,CA,at Bidwell St,"1690 Robson St (at Bidwell St), Vancouver BC V6G 1C7",Vancouver,V6G 1C7,BC,America/Vancouver,Hokkaido Ramen Santouka,0c42f45e4a14957ad4a6d521d0ba8bc3
4fbc5a794fc6cb9f394f9160,13065,[],168,49.290654,-123.133874,CA,at Bidwell St,"1703 Robson St (at Bidwell St), Vancouver BC V6G 1C9",Vancouver,V6G 1C9,BC,America/Vancouver,Nero Belgian Waffle Bar,0c42f45e4a14957ad4a6d521d0ba8bc3
56bfad1fcd10a333b3097621,13065,[],114,49.290062,-123.133499,CA,,"1680 Robson St, Vancouver BC V6G 1C7",Vancouver,V6G 1C7,BC,America/Vancouver,The Bubble Tea Shop,0c42f45e4a14957ad4a6d521d0ba8bc3
5185b82c498e09b9a3fd0c7e,13065,[],168,49.290515,-123.133538,CA,at Robson St,"780 Bidwell St (at Robson St), Vancouver BC V6G 2J6",Vancouver,V6G 2J6,BC,America/Vancouver,Marutama Ra-men,0c42f45e4a14957ad4a6d521d0ba8bc3
5117169ce4b0a8f49ffc02bd,13065,[],196,49.290752,-123.134045,CA,,"1719 Robson St, Vancouver BC V6G 1C9",Vancouver,V6G 1C9,BC,America/Vancouver,Dinesty Chinese Restaurant,0c42f45e4a14957ad4a6d521d0ba8bc3
6226f929ebb97a57657ce5bd,13065,[],160,49.288796,-123.130633,CA,,"1479 Robson St, Vancouver BC V6G 1C1",Vancouver,V6G 1C1,BC,America/Vancouver,Menya Itto,0c42f45e4a14957ad4a6d521d0ba8bc3
56c0f055cd109aa5f1b47a62,13065,[],121,49.290103,-123.133665,CA,btwn Bidwell & Cardero,"1682 Robson St (btwn Bidwell & Cardero), Vancouver BC V6G 1C7",Vancouver,V6G 1C7,BC,America/Vancouver,Viet Sub,0c42f45e4a14957ad4a6d521d0ba8bc3
5abd3ab82a7ab67115fd3ce3,13065,[],162,49.288662,-123.13054,CA,Nicola street,"1479 Robson St (Nicola street), Vancouver BC V6G 1C1",Vancouver,V6G 1C1,BC,America/Vancouver,Ramen Koika,0c42f45e4a14957ad4a6d521d0ba8bc3
4ac57d30f964a52036b220e3,13065,[],156,49.290288,-123.134411,CA,at Robson St.,"833 Bidwell St (at Robson St.), Vancouver BC V6G 2J7",Vancouver,V6G 2J7,BC,America/Vancouver,Mo-Mo Sushi House,0c42f45e4a14957ad4a6d521d0ba8bc3
4aa97571f964a520c25320e3,13065,[],42,49.289661,-123.132329,CA,at Cardero St.,"1615 Robson St (at Cardero St.), Vancouver BC V6G 1C8",Vancouver,V6G 1C8,BC,America/Vancouver,Blenz Coffee,0c42f45e4a14957ad4a6d521d0ba8bc3
571acef5498ef2ba25307bd9,13065,[],64,49.288997,-123.13211,CA,,"1542 Robson St, Vancouver BC V6G 1C2",Vancouver,V6G 1C2,BC,America/Vancouver,Chongqing Liuyishou HotPot Restaurant,0c42f45e4a14957ad4a6d521d0ba8bc3
4d6f25d2b73bb1f7880aa772,13065,[],64,49.289856,-123.13267,CA,,"1635 Robson St, Vancouver BC V6G 1C8",Vancouver,V6G 1C8,BC,America/Vancouver,Zabu Chicken,0c42f45e4a14957ad4a6d521d0ba8bc3
5cbb8311c824ae002cf86a39,13065,[],23,49.289517,-123.132641,CA,,"1610 Robson St, Vancouver BC V6G 1C7",Vancouver,V6G 1C7,BC,America/Vancouver,Namsan,0c42f45e4a14957ad4a6d521d0ba8bc3
625f10ed1c8b0f5cb3fe9c3e,13065,[],27,49.28945,-123.133041,CA,,"1610 Robson St, Vancouver BC V6G 1C7",Vancouver,V6G 1C7,BC,America/Vancouver,Cheetah Meal,0c42f45e4a14957ad4a6d521d0ba8bc3
4aa75ceaf964a520c84c20e3,13065,[],30,49.289465,-123.13288,CA,at Cardero St,"1610 Robson St (at Cardero St), Vancouver BC V6G 1C7",Vancouver,V6G 1C7,BC,America/Vancouver,Freshslice Pizza,0c42f45e4a14957ad4a6d521d0ba8bc3
5c5b6e54f8cbd4002c33e40e,13065,[],48,49.289501,-123.132802,CA,,"1610 Robson St, Vancouver BC V6G 1C7",Vancouver,V6G 1C7,BC,America/Vancouver,Al-Hadbah Donair,0c42f45e4a14957ad4a6d521d0ba8bc3
6136bbd4c1a9d734187875d2,13065,[],50,49.289347,-123.131734,CA,,"1578 Robson St, Vancouver BC V6G 1C2",Vancouver,V6G 1C2,BC,America/Vancouver,Pho 37,0c42f45e4a14957ad4a6d521d0ba8bc3
5f03ce675bc6ee4ba983d6fc,13065,[],56,49.28911,-123.13212,CA,,"1578 Robson St, Vancouver BC V6G 1C2",Vancouver,V6G 1C2,BC,America/Vancouver,Gyusen,0c42f45e4a14957ad4a6d521d0ba8bc3
5aad7a8189e49066ebaec2c3,13065,[],157,49.290288,-123.134411,CA,,"841 Bidwell St, Vancouver BC V6G 2J7",Vancouver,V6G 2J7,BC,America/Vancouver,Ramen Taka notsume,0c42f45e4a14957ad4a6d521d0ba8bc3
61fc76a431e87873269595dd,13065,[],75,49.289794,-123.133314,CA,,"1660 Robson St, Vancouver BC V6G 1C7",Vancouver,V6G 1C7,BC,America/Vancouver,Nukid,0c42f45e4a14957ad4a6d521d0ba8bc3
5e1293349316a70007d7192c,13065,[],76,49.289954,-123.133733,CA,,"1668 Robson St, Vancouver BC V6G 1C7",Vancouver,V6G 1C7,BC,America/Vancouver,Pokerrito,0c42f45e4a14957ad4a6d521d0ba8bc3
565a8110498ecb54a43d894e,13065,[],79,49.289774,-123.133231,CA,,"1642 Robson St, Vancouver BC V6G 1C7",Vancouver,V6G 1C7,BC,America/Vancouver,Hongdae Pocha Cafe,0c42f45e4a14957ad4a6d521d0ba8bc3
5b9da7927b385f002c9cca91,13065,[],79,49.288976,-123.132027,CA,,"1536 Robson St, Vancouver BC V6G 1C2",Vancouver,V6G 1C2,BC,America/Vancouver,Ta Bom Korean Cuisine,0c42f45e4a14957ad4a6d521d0ba8bc3
5da685f691051100084a75b5,13065,[],95,49.289949,-123.133489,CA,,"1660 Robson St, Vancouver BC V6G 1C7",Vancouver,V6G 1C7,BC,America/Vancouver,Bob Pochana Restaurant Inc,0c42f45e4a14957ad4a6d521d0ba8bc3
4cb922cd035d236a2435d24e,13065,[],76,49.289733,-123.133065,CA,btwn Cardero & Bidwell,"1638 Robson St (btwn Cardero & Bidwell), Vancouver BC V6G 1C7",Vancouver,V6G 1C7,BC,America/Vancouver,Book Kyung Ban Jeoum,0c42f45e4a14957ad4a6d521d0ba8bc3
5cd4965e3092be002c54067b,13065,[],99,49.289012,-123.131057,CA,,"1509 Robson St, Vancouver BC V6G 1C3",Vancouver,V6G 1C3,BC,America/Vancouver,Kazami Japanese Restaurant,0c42f45e4a14957ad4a6d521d0ba8bc3
56776609498ec86115dc37e9,13065,[],101,49.288739,-123.13152,CA,,"1610 Robson St, Vancouver BC V6G 1C7",Vancouver,V6G 1C7,BC,America/Vancouver,Chewy Peppers,0c42f45e4a14957ad4a6d521d0ba8bc3
5bcabee9e65d0c003953502b,13065,[],103,49.289095,-123.131388,CA,Nicola st.,"1517 Robson St (Nicola st.), Vancouver BC V6G 1C3",Vancouver,V6G 1C3,BC,America/Vancouver,Old Xian Food's,0c42f45e4a14957ad4a6d521d0ba8bc3
5c6f7de8598e64002c215f5d,13065,[],136,49.290294,-123.131977,CA,Cardero Street,"1616 Alberni St (Cardero Street), Vancouver BC V6G 1A6",Vancouver,V6G 1A6,BC,America/Vancouver,The Red Accordion,0c42f45e4a14957ad4a6d521d0ba8bc3
5b0228e3f79faa002c7a70d2,13065,[],148,49.288626,-123.130618,CA,,"1487 Robson St, Vancouver BC V6G 1C1",Vancouver,V6G 1C1,BC,America/Vancouver,The Captain's Boil,0c42f45e4a14957ad4a6d521d0ba8bc3
5d34ea4c768dca00078928f9,13065,[],175,49.290417,-123.13426,CA,,"1706 Robson St, Vancouver BC V6G 1E2",Vancouver,V6G 1E2,BC,America/Vancouver,J&G Fried Chicken,0c42f45e4a14957ad4a6d521d0ba8bc3
4aa9ef4ff964a520865520e3,13065,"[{'id': 'ab4a3530-d68a-012e-5619-003048cad9da', 'name': ""McDonald's""}]",179,49.29069,-123.133796,CA,at Bidwell St,"1701 Robson St (at Bidwell St), Vancouver BC V6G 1C9",Vancouver,V6G 1C9,BC,America/Vancouver,McDonald's,0c42f45e4a14957ad4a6d521d0ba8bc3
58ecd59815144e3003124797,13065,[],27,49.289465,-123.13288,CA,,"1610 Robson St, Vancouver BC",Vancouver,,BC,,Robson St,0c42f45e4a14957ad4a6d521d0ba8bc3
ae2c32cf255844b256819569,13065,[],31,49.289537,-123.132724,CA,,"1610 Robson St, Vancouver BC V6G 1C7",Vancouver,V6G 1C7,BC,,Mori Japanese Food,0c42f45e4a14957ad4a6d521d0ba8bc3
2f31389ec4d846758c6696db,13065,[],41,49.289614,-123.132812,CA,,"1610 Robson St, Vancouver BC V6G 1C7",Vancouver,V6G 1C7,BC,,ChewyPeppers,0c42f45e4a14957ad4a6d521d0ba8bc3
f2f7172925724365c6a697a2,13065,[],66,49.289856,-123.13267,CA,,"1635 Robson St, Vancouver BC V6G 1C8",Vancouver,V6G 1C8,BC,,Kosetsu,0c42f45e4a14957ad4a6d521d0ba8bc3
f38f9ebce15049b90fbb08e3,13065,[],91,49.289964,-123.133328,CA,,"1660 Robson St, Vancouver BC V6G 1C7",Vancouver,V6G 1C7,BC,,Chui Restaurant,0c42f45e4a14957ad4a6d521d0ba8bc3
d8d9678fc649488ead022612,13065,[],134,49.290237,-123.133757,CA,,"1682 Robson St, Vancouver BC V6G 1C7",Vancouver,V6G 1C7,BC,,Smoke's Poutinerie,0c42f45e4a14957ad4a6d521d0ba8bc3
5a909dd373cb40d15a4bc5d7,13065,[],151,49.288667,-123.130784,CA,,"1487 Robson St, Vancouver BC V6G 1C1",Vancouver,V6G 1C1,BC,,Francesco's Restaurant,0c42f45e4a14957ad4a6d521d0ba8bc3
99f4ca5a83764ddfeb73fdf2,13065,[],186,49.29015,-123.130505,CA,,"1500 Georgia St W, Vancouver BC V6G 2Z6",Vancouver,V6G 2Z6,BC,,Calkins & Burke Ltd,0c42f45e4a14957ad4a6d521d0ba8bc3
c84c8c13ab024a24350b4aca,13065,[],199,49.290844,-123.133972,CA,,"1719 Robson St, Vancouver BC V6G 1C9",Vancouver,V6G 1C9,BC,,Noodle Robo,0c42f45e4a14957ad4a6d521d0ba8bc3
509ffdfee4b0f56d61d68a87,13065,[],20,49.252597,-123.068255,CA,at E 20th Ave,"3599 Commercial St (at E 20th Ave), Vancouver BC V5N 4E8",Vancouver,V5N 4E8,BC,America/Vancouver,Commercial Street Cafe,62a202eb98c0a4b09ba6746f5ee94ab3
61439820005885463d8ffbfd,13065,[],50,49.253189,-123.067737,CA,,"3532 Commercial St, Vancouver BC V5N 4E9",Vancouver,V5N 4E9,BC,America/Vancouver,Collective Goods,62a202eb98c0a4b09ba6746f5ee94ab3
4f52e6fbe4b0639bb9d59510,13065,[],59,49.253096,-123.06781,CA,,"3532 Commercial St, Vancouver BC V5N 4E9",Vancouver,V5N 4E9,BC,America/Vancouver,Casa Verde Restaurant Ltd,62a202eb98c0a4b09ba6746f5ee94ab3
5649084d498efa9517d6db12,13065,[],148,49.253925,-123.067799,CA,Victoria Diversion,"3424 Commercial St (Victoria Diversion), Vancouver BC V5N 4E9",Vancouver,V5N 4E9,BC,America/Vancouver,Chance Cafe,62a202eb98c0a4b09ba6746f5ee94ab3
d713624d971043761cae3734,13065,[],86,49.252848,-123.066816,CA,,"5628 Victoria Dr, Vancouver BC V5P 3W4",Vancouver,V5P 3W4,BC,,Sumi Korean Restaurant,62a202eb98c0a4b09ba6746f5ee94ab3
f4c21eca0c424118f7c7c9eb,13065,[],133,49.253848,-123.067712,CA,,"1833 Victoria Divers, Vancouver BC V5N 2K2",Vancouver,V5N 2K2,BC,,World Peace Cafe Vancouver,62a202eb98c0a4b09ba6746f5ee94ab3
68332ae1cf2e466373639a98,13065,[],144,49.253936,-123.068287,CA,,"3433 Commercial St, Vancouver BC V5N 4E8",Vancouver,V5N 4E8,BC,,Flourist,62a202eb98c0a4b09ba6746f5ee94ab3
e9eac41b4595468c4dba7a2c,13065,[],162,49.254106,-123.068301,CA,,"1815 Commercial Dr, Vancouver BC V5N 4A6",Vancouver,V5N 4A6,BC,,Park Drive Venue GP,62a202eb98c0a4b09ba6746f5ee94ab3
514cc33ae4b0cbb5ebe906ed,13065,[],122,49.277632,-123.130976,CA,Drake St,"1308 Burrard St (Drake St), Vancouver BC V6Z 2B7",Vancouver,V6Z 2B7,BC,America/Vancouver,Number e food,a6c6df138cbc97b9f81e7ffbbebdde6f
4ab988d5f964a520cb7f20e3,13065,[],165,49.277632,-123.131868,CA,btwn Pacific & Harwood,"1361 Burrard St (btwn Pacific & Harwood), Vancouver BC V6Z 1Z7",Vancouver,V6Z 1Z7,BC,America/Vancouver,Sushi Osaka,a6c6df138cbc97b9f81e7ffbbebdde6f
4bdf33486198c9b61b4e16ff,13065,[],159,49.277864,-123.12767,CA,at Howe St.,"828 Davie St (at Howe St.), Vancouver BC V6Z 2S2",Vancouver,V6Z 2S2,BC,America/Vancouver,Nando's,a6c6df138cbc97b9f81e7ffbbebdde6f
4bbe5ae582a2ef3bf2382bd2,13065,[],129,49.277689,-123.130981,CA,at Drake St.,"1306 Burrard St (at Drake St.), Vancouver BC V6Z 2B7",Vancouver,V6Z 2B7,BC,America/Vancouver,Sushi Coen,a6c6df138cbc97b9f81e7ffbbebdde6f
5cf5831f0d173f002c75de93,13065,[],142,49.278723,-123.12823,CA,,"903 Davie St, Vancouver BC V6Z 1B9",Vancouver,V6Z 1B9,BC,America/Vancouver,Sushi Mugen,a6c6df138cbc97b9f81e7ffbbebdde6f
6078a8f25143892cb9e9c954,13065,[],139,49.277941,-123.131327,CA,,"1325 Burrard St, Vancouver BC V6Z 1Z7",Vancouver,V6Z 1Z7,BC,America/Vancouver,Maxine's Cafe & Bar,a6c6df138cbc97b9f81e7ffbbebdde6f
4d0197d53be26dcbfb9273e4,13065,[],154,49.278816,-123.128157,CA,at Hornby Street,"917 Davie St (at Hornby Street), Vancouver BC V6Z 1B9",Vancouver,V6Z 1B9,BC,America/Vancouver,Patterson Chinese Restaurant,a6c6df138cbc97b9f81e7ffbbebdde6f
4aabfc16f964a520685b20e3,13065,[],196,49.276963,-123.126944,CA,at Davie St.,"1227 Granville St (at Davie St.), Vancouver BC V6Z 1M5",Vancouver,V6Z 1M5,BC,America/Vancouver,Morrissey Irish Bar & Restaurant,a6c6df138cbc97b9f81e7ffbbebdde6f
581d44acabffa14f7316e8c4,13065,[],157,49.277823,-123.127505,CA,Howe St,"808 Davie St (Howe St), Vancouver BC V6Z 2S2",Vancouver,V6Z 2S2,BC,America/Vancouver,Firecrust - Davie,a6c6df138cbc97b9f81e7ffbbebdde6f
4b499612f964a520807126e3,13065,"[{'id': 'd5719cc0-d890-0132-61d3-7a163eb2a6fc', 'name': 'Tim Hortons'}]",162,49.277591,-123.127241,CA,at Howe St.,"756 Davie St (at Howe St.), Vancouver BC V6Z 1B6",Vancouver,V6Z 1B6,BC,America/Vancouver,Tim Hortons,a6c6df138cbc97b9f81e7ffbbebdde6f
4ca4e506f47ea143584b5221,13065,[],128,49.27878,-123.13002,CA,Davie St,"1233 Burrard St (Davie St), Vancouver BC V6Z 1Z5",Vancouver,V6Z 1Z5,BC,America/Vancouver,Maple Leaf Delicatessen,a6c6df138cbc97b9f81e7ffbbebdde6f
55515c40498e96daea31c933,13065,[],72,49.277009,-123.130031,CA,Drake,"1328 Hornby St (Drake), Vancouver BC V6Z 1W5",Vancouver,V6Z 1W5,BC,America/Vancouver,Giardino Restaurant,a6c6df138cbc97b9f81e7ffbbebdde6f
4c6d40843fbf76b033ca421c,13065,"[{'id': 'ab4bee40-d68a-012e-5619-003048cad9da', 'name': 'Subway'}]",129,49.27792,-123.127675,CA,btwn Howe & Hornby,"838 Davie St (btwn Howe & Hornby), Vancouver BC V6Z 2S2",Vancouver,V6Z 2S2,BC,America/Vancouver,Subway,a6c6df138cbc97b9f81e7ffbbebdde6f
4d377365e6bdf04ddf0c5bb4,13065,"[{'id': 'ab4bee40-d68a-012e-5619-003048cad9da', 'name': 'Subway'}]",183,49.276742,-123.127169,CA,,"1255 Granville St, Vancouver BC V6Z 1M5",Vancouver,V6Z 1M5,BC,America/Vancouver,Subway,a6c6df138cbc97b9f81e7ffbbebdde6f
4ac64304f964a5206db320e3,13065,[],166,49.277416,-123.131444,CA,at Harwood St.,"1346 Burrard St (at Harwood St.), Vancouver BC V6Z 2B7",Vancouver,V6Z 2B7,BC,America/Vancouver,Daikichi Sushi,a6c6df138cbc97b9f81e7ffbbebdde6f
4e8d19139adf8e728c633a6f,13065,"[{'id': 'd5719cc0-d890-0132-61d3-7a163eb2a6fc', 'name': 'Tim Hortons'}]",190,49.279192,-123.129893,CA,Davie St.,"1205 Burrard St (Davie St.), Vancouver BC V6Z 1Z5",Vancouver,V6Z 1Z5,BC,America/Vancouver,Tim Hortons,a6c6df138cbc97b9f81e7ffbbebdde6f
59792046a35dce5eceae7a0f,13065,[],109,49.276747,-123.128305,CA,,"1290 Howe St, Vancouver BC V6Z 1R5",Vancouver,V6Z 1R5,BC,America/Vancouver,Sombreros Mexican Products & Taqueria,a6c6df138cbc97b9f81e7ffbbebdde6f
5c350675d1a402002c9514e0,13065,[],124,49.27686,-123.130991,CA,,"1355 Hornby St, Vancouver BC V6Z 1W7",Vancouver,V6Z 1W7,BC,America/Vancouver,RV's Butter Kitchen,a6c6df138cbc97b9f81e7ffbbebdde6f
5ec1729cd0be34000762fb73,13065,[],145,49.278744,-123.130098,CA,,"1225 Burrard St, Vancouver BC V6Z 1Z5",Vancouver,V6Z 1Z5,BC,America/Vancouver,Caffe Mira,a6c6df138cbc97b9f81e7ffbbebdde6f
5f5a9a8b512f06723283c8d4,13065,[],173,49.27633,-123.130865,CA,Drake Street,"1330 Hornby St (Drake Street), Vancouver BC V6Z 1W5",Vancouver,V6Z 1W5,BC,America/Vancouver,Sashimiya,a6c6df138cbc97b9f81e7ffbbebdde6f
59a0e894c0cacb5d0ff64c31,13065,[],177,49.277694,-123.126763,CA,Howe Street,"738 Davie St (Howe Street), Vancouver BC V6Z 1B6",Vancouver,V6Z 1B6,BC,America/Vancouver,Sushi Howe,a6c6df138cbc97b9f81e7ffbbebdde6f
5d05687c59c423002cf2dd1c,13065,[],183,49.27775,-123.126768,CA,Howe Street,"781 Davie St (Howe Street), Vancouver BC V6Z 2S7",Vancouver,V6Z 2S7,BC,America/Vancouver,Rori Momo,a6c6df138cbc97b9f81e7ffbbebdde6f
56ce2668498e04a59ebcd579,13065,[],190,49.276876,-123.13083,CA,Pacific St,"1355 Hornby St (Pacific St), Vancouver BC V6Z 1W7",Vancouver,V6Z 1W7,BC,America/Vancouver,Art of Spice,a6c6df138cbc97b9f81e7ffbbebdde6f
4ab2cc03f964a5206c6c20e3,13065,[],196,49.27618,-123.128257,CA,at Granville St,"718 Drake St (at Granville St), Vancouver BC V6Z 2W6",Vancouver,V6Z 2W6,BC,America/Vancouver,White Spot,a6c6df138cbc97b9f81e7ffbbebdde6f
3e2c90924eaa41aaceb745d9,13065,[],101,49.276634,-123.129187,CA,,"1311 Howe St, Vancouver BC V6Z 2P3",Vancouver,V6Z 2P3,BC,,Prime Restaurant Canada Inc,a6c6df138cbc97b9f81e7ffbbebdde6f
9a8df93d40034c06f9e940b9,13065,[],106,49.277725,-123.130903,CA,,"1306 Burrard St, Vancouver BC",Vancouver,,BC,,Yo Ramen,a6c6df138cbc97b9f81e7ffbbebdde6f
b7958cc4f9da459bd62f53b2,13065,[],115,49.276737,-123.130494,CA,,"1348 Hornby St, Vancouver BC V6Z 1W5",Vancouver,V6Z 1W5,BC,,Sato Sushi,a6c6df138cbc97b9f81e7ffbbebdde6f
cd661958875645bc1de5bf90,13065,[],157,49.278765,-123.128396,CA,,"917 Davie St, Vancouver BC V6Z 1B9",Vancouver,V6Z 1B9,BC,,Patterson Fast Food,a6c6df138cbc97b9f81e7ffbbebdde6f
c13004f1d1ab485559060c87,13065,[],174,49.277436,-123.127066,CA,,"Davie St, Vancouver BC",Vancouver,,BC,,Sushi,a6c6df138cbc97b9f81e7ffbbebdde6f
c1860bb6f7404f967e9e73e9,13065,[],175,49.276315,-123.131026,CA,,"1376 Hornby St, Vancouver BC V6Z 1W5",Vancouver,V6Z 1W5,BC,,Umberto Management Ltd,a6c6df138cbc97b9f81e7ffbbebdde6f
ce0cd3b136464714ffe647d6,13065,[],197,49.27775,-123.126768,CA,,"781 Davie St, Vancouver BC V6Z 2S7",Vancouver,V6Z 2S7,BC,,Rorimoto Japanese Korean Restaurant,a6c6df138cbc97b9f81e7ffbbebdde6f
